<?xml version="1.0" encoding="UTF-8"?>
<gpx version="1.1" creator="bikecomputer" xmlns="http://www.topografix.com/GPX/1/1">
  <trk>
    <name>Bike Activity</name>
    <trkseg>
      <trkpt lat="48.20583767" lon="15.61778000">
        <time>2026-03-04T12:13:14Z</time>
        <course>0.00</course>
        <speed>1.518</speed>
      </trkpt>
      <trkpt lat="48.20583767" lon="15.61778000">
        <time>2026-03-04T12:13:14Z</time>
        <course>0.00</course>
        <speed>1.518</speed>
      </trkpt>
      <trkpt lat="48.20582817" lon="15.61778300">
        <time>2026-03-04T12:13:15Z</time>
        <course>0.00</course>
        <speed>1.484</speed>
      </trkpt>
      <trkpt lat="48.20582817" lon="15.61778300">
        <time>2026-03-04T12:13:15Z</time>
        <course>0.00</course>
        <speed>1.484</speed>
      </trkpt>
      <trkpt lat="48.20582350" lon="15.61777500">
        <time>2026-03-04T12:13:16Z</time>
        <course>0.00</course>
        <speed>0.962</speed>
      </trkpt>
      <trkpt lat="48.20582350" lon="15.61777500">
        <time>2026-03-04T12:13:16Z</time>
        <course>0.00</course>
        <speed>0.962</speed>
      </trkpt>
      <trkpt lat="48.20582217" lon="15.61776800">
        <time>2026-03-04T12:13:17Z</time>
        <course>0.00</course>
        <speed>0.939</speed>
      </trkpt>
      <trkpt lat="48.20582217" lon="15.61776800">
        <time>2026-03-04T12:13:17Z</time>
        <course>0.00</course>
        <speed>0.939</speed>
      </trkpt>
      <trkpt lat="48.20586517" lon="15.61775367">
        <time>2026-03-04T12:13:19Z</time>
        <course>0.00</course>
        <speed>2.931</speed>
      </trkpt>
      <trkpt lat="48.20586517" lon="15.61775367">
        <time>2026-03-04T12:13:19Z</time>
        <course>0.00</course>
        <speed>2.931</speed>
      </trkpt>
      <trkpt lat="48.20589033" lon="15.61774283">
        <time>2026-03-04T12:13:20Z</time>
        <course>0.00</course>
        <speed>3.249</speed>
      </trkpt>
      <trkpt lat="48.20589033" lon="15.61774283">
        <time>2026-03-04T12:13:20Z</time>
        <course>0.00</course>
        <speed>3.249</speed>
      </trkpt>
      <trkpt lat="48.20592417" lon="15.61774383">
        <time>2026-03-04T12:13:21Z</time>
        <course>0.00</course>
        <speed>3.112</speed>
      </trkpt>
      <trkpt lat="48.20592417" lon="15.61774383">
        <time>2026-03-04T12:13:21Z</time>
        <course>0.00</course>
        <speed>3.112</speed>
      </trkpt>
      <trkpt lat="48.20592817" lon="15.61770733">
        <time>2026-03-04T12:13:22Z</time>
        <course>0.00</course>
        <speed>2.778</speed>
      </trkpt>
      <trkpt lat="48.20592817" lon="15.61770733">
        <time>2026-03-04T12:13:22Z</time>
        <course>0.00</course>
        <speed>2.778</speed>
      </trkpt>
      <trkpt lat="48.20592550" lon="15.61771900">
        <time>2026-03-04T12:13:23Z</time>
        <course>0.00</course>
        <speed>1.866</speed>
      </trkpt>
      <trkpt lat="48.20592550" lon="15.61771900">
        <time>2026-03-04T12:13:23Z</time>
        <course>0.00</course>
        <speed>1.866</speed>
      </trkpt>
      <trkpt lat="48.20592350" lon="15.61768550">
        <time>2026-03-04T12:13:24Z</time>
        <course>0.00</course>
        <speed>1.762</speed>
      </trkpt>
      <trkpt lat="48.20592350" lon="15.61768550">
        <time>2026-03-04T12:13:24Z</time>
        <course>0.00</course>
        <speed>1.762</speed>
      </trkpt>
      <trkpt lat="48.20591933" lon="15.61766617">
        <time>2026-03-04T12:13:25Z</time>
        <course>0.00</course>
        <speed>1.391</speed>
      </trkpt>
      <trkpt lat="48.20591933" lon="15.61766617">
        <time>2026-03-04T12:13:25Z</time>
        <course>0.00</course>
        <speed>1.391</speed>
      </trkpt>
      <trkpt lat="48.20590850" lon="15.61762867">
        <time>2026-03-04T12:13:26Z</time>
        <course>0.00</course>
        <speed>1.715</speed>
      </trkpt>
      <trkpt lat="48.20590850" lon="15.61762867">
        <time>2026-03-04T12:13:26Z</time>
        <course>0.00</course>
        <speed>1.715</speed>
      </trkpt>
      <trkpt lat="48.20590583" lon="15.61762933">
        <time>2026-03-04T12:13:27Z</time>
        <course>0.00</course>
        <speed>0.841</speed>
      </trkpt>
      <trkpt lat="48.20590583" lon="15.61762933">
        <time>2026-03-04T12:13:27Z</time>
        <course>0.00</course>
        <speed>0.841</speed>
      </trkpt>
      <trkpt lat="48.20589383" lon="15.61762500">
        <time>2026-03-04T12:13:28Z</time>
        <course>0.00</course>
        <speed>0.654</speed>
      </trkpt>
      <trkpt lat="48.20589383" lon="15.61762500">
        <time>2026-03-04T12:13:28Z</time>
        <course>0.00</course>
        <speed>0.654</speed>
      </trkpt>
      <trkpt lat="48.20590700" lon="15.61762083">
        <time>2026-03-04T12:13:29Z</time>
        <course>0.00</course>
        <speed>0.610</speed>
      </trkpt>
      <trkpt lat="48.20590700" lon="15.61762083">
        <time>2026-03-04T12:13:29Z</time>
        <course>0.00</course>
        <speed>0.610</speed>
      </trkpt>
      <trkpt lat="48.20587833" lon="15.61760850">
        <time>2026-03-04T12:13:30Z</time>
        <course>0.00</course>
        <speed>1.091</speed>
      </trkpt>
      <trkpt lat="48.20587833" lon="15.61760850">
        <time>2026-03-04T12:13:30Z</time>
        <course>0.00</course>
        <speed>1.091</speed>
      </trkpt>
      <trkpt lat="48.20589450" lon="15.61763250">
        <time>2026-03-04T12:13:31Z</time>
        <course>0.00</course>
        <speed>0.762</speed>
      </trkpt>
      <trkpt lat="48.20589450" lon="15.61763250">
        <time>2026-03-04T12:13:31Z</time>
        <course>0.00</course>
        <speed>0.762</speed>
      </trkpt>
      <trkpt lat="48.20592000" lon="15.61766567">
        <time>2026-03-04T12:13:32Z</time>
        <course>0.00</course>
        <speed>0.541</speed>
      </trkpt>
      <trkpt lat="48.20592000" lon="15.61766567">
        <time>2026-03-04T12:13:32Z</time>
        <course>0.00</course>
        <speed>0.541</speed>
      </trkpt>
      <trkpt lat="48.20602367" lon="15.61771733">
        <time>2026-03-04T12:13:33Z</time>
        <course>0.00</course>
        <speed>1.713</speed>
      </trkpt>
      <trkpt lat="48.20602367" lon="15.61771733">
        <time>2026-03-04T12:13:33Z</time>
        <course>0.00</course>
        <speed>1.713</speed>
      </trkpt>
      <trkpt lat="48.20603767" lon="15.61771733">
        <time>2026-03-04T12:13:34Z</time>
        <course>0.00</course>
        <speed>1.703</speed>
      </trkpt>
      <trkpt lat="48.20603767" lon="15.61771733">
        <time>2026-03-04T12:13:34Z</time>
        <course>0.00</course>
        <speed>1.703</speed>
      </trkpt>
      <trkpt lat="48.20606383" lon="15.61769900">
        <time>2026-03-04T12:13:35Z</time>
        <course>0.00</course>
        <speed>1.886</speed>
      </trkpt>
      <trkpt lat="48.20606383" lon="15.61769900">
        <time>2026-03-04T12:13:35Z</time>
        <course>0.00</course>
        <speed>1.886</speed>
      </trkpt>
      <trkpt lat="48.20608750" lon="15.61769950">
        <time>2026-03-04T12:13:36Z</time>
        <course>0.00</course>
        <speed>1.993</speed>
      </trkpt>
      <trkpt lat="48.20608750" lon="15.61769950">
        <time>2026-03-04T12:13:36Z</time>
        <course>0.00</course>
        <speed>1.993</speed>
      </trkpt>
      <trkpt lat="48.20610383" lon="15.61770650">
        <time>2026-03-04T12:13:37Z</time>
        <course>0.00</course>
        <speed>1.959</speed>
      </trkpt>
      <trkpt lat="48.20610383" lon="15.61770650">
        <time>2026-03-04T12:13:37Z</time>
        <course>0.00</course>
        <speed>1.959</speed>
      </trkpt>
      <trkpt lat="48.20623050" lon="15.61778483">
        <time>2026-03-04T12:13:40Z</time>
        <course>0.00</course>
        <speed>2.668</speed>
      </trkpt>
      <trkpt lat="48.20623050" lon="15.61778483">
        <time>2026-03-04T12:13:40Z</time>
        <course>0.00</course>
        <speed>2.668</speed>
      </trkpt>
      <trkpt lat="48.20626533" lon="15.61781867">
        <time>2026-03-04T12:13:41Z</time>
        <course>0.00</course>
        <speed>2.619</speed>
      </trkpt>
      <trkpt lat="48.20626533" lon="15.61781867">
        <time>2026-03-04T12:13:41Z</time>
        <course>0.00</course>
        <speed>2.619</speed>
      </trkpt>
      <trkpt lat="48.20642550" lon="15.61795350">
        <time>2026-03-04T12:13:45Z</time>
        <course>15.45</course>
        <speed>2.622</speed>
      </trkpt>
      <trkpt lat="48.20642550" lon="15.61795350">
        <time>2026-03-04T12:13:45Z</time>
        <course>15.45</course>
        <speed>2.622</speed>
      </trkpt>
      <trkpt lat="48.20644100" lon="15.61796650">
        <time>2026-03-04T12:13:46Z</time>
        <course>21.23</course>
        <speed>2.330</speed>
      </trkpt>
      <trkpt lat="48.20644100" lon="15.61796650">
        <time>2026-03-04T12:13:46Z</time>
        <course>21.23</course>
        <speed>2.330</speed>
      </trkpt>
      <trkpt lat="48.20645817" lon="15.61796933">
        <time>2026-03-04T12:13:47Z</time>
        <course>25.86</course>
        <speed>2.146</speed>
      </trkpt>
      <trkpt lat="48.20645817" lon="15.61796933">
        <time>2026-03-04T12:13:47Z</time>
        <course>25.86</course>
        <speed>2.146</speed>
      </trkpt>
      <trkpt lat="48.20647450" lon="15.61796567">
        <time>2026-03-04T12:13:48Z</time>
        <course>28.96</course>
        <speed>1.920</speed>
      </trkpt>
      <trkpt lat="48.20647450" lon="15.61796567">
        <time>2026-03-04T12:13:48Z</time>
        <course>28.96</course>
        <speed>1.920</speed>
      </trkpt>
      <trkpt lat="48.20647717" lon="15.61796500">
        <time>2026-03-04T12:13:49Z</time>
        <course>0.00</course>
        <speed>1.688</speed>
      </trkpt>
      <trkpt lat="48.20647717" lon="15.61796500">
        <time>2026-03-04T12:13:49Z</time>
        <course>0.00</course>
        <speed>1.688</speed>
      </trkpt>
      <trkpt lat="48.20648817" lon="15.61798467">
        <time>2026-03-04T12:13:50Z</time>
        <course>0.00</course>
        <speed>1.830</speed>
      </trkpt>
      <trkpt lat="48.20648817" lon="15.61798467">
        <time>2026-03-04T12:13:50Z</time>
        <course>0.00</course>
        <speed>1.830</speed>
      </trkpt>
      <trkpt lat="48.20648550" lon="15.61799733">
        <time>2026-03-04T12:13:51Z</time>
        <course>0.00</course>
        <speed>1.805</speed>
      </trkpt>
      <trkpt lat="48.20648550" lon="15.61799733">
        <time>2026-03-04T12:13:51Z</time>
        <course>0.00</course>
        <speed>1.805</speed>
      </trkpt>
      <trkpt lat="48.20649967" lon="15.61799367">
        <time>2026-03-04T12:13:52Z</time>
        <course>0.00</course>
        <speed>1.647</speed>
      </trkpt>
      <trkpt lat="48.20649967" lon="15.61799367">
        <time>2026-03-04T12:13:52Z</time>
        <course>0.00</course>
        <speed>1.647</speed>
      </trkpt>
      <trkpt lat="48.20650250" lon="15.61797517">
        <time>2026-03-04T12:13:54Z</time>
        <course>0.00</course>
        <speed>1.339</speed>
      </trkpt>
      <trkpt lat="48.20650250" lon="15.61797517">
        <time>2026-03-04T12:13:54Z</time>
        <course>0.00</course>
        <speed>1.339</speed>
      </trkpt>
      <trkpt lat="48.20649350" lon="15.61795783">
        <time>2026-03-04T12:13:55Z</time>
        <course>0.00</course>
        <speed>1.095</speed>
      </trkpt>
      <trkpt lat="48.20649350" lon="15.61795783">
        <time>2026-03-04T12:13:55Z</time>
        <course>0.00</course>
        <speed>1.095</speed>
      </trkpt>
      <trkpt lat="48.20649000" lon="15.61795483">
        <time>2026-03-04T12:13:56Z</time>
        <course>0.00</course>
        <speed>1.049</speed>
      </trkpt>
      <trkpt lat="48.20649000" lon="15.61795483">
        <time>2026-03-04T12:13:56Z</time>
        <course>0.00</course>
        <speed>1.049</speed>
      </trkpt>
      <trkpt lat="48.20645633" lon="15.61797950">
        <time>2026-03-04T12:13:58Z</time>
        <course>0.00</course>
        <speed>1.352</speed>
      </trkpt>
      <trkpt lat="48.20645633" lon="15.61797950">
        <time>2026-03-04T12:13:58Z</time>
        <course>0.00</course>
        <speed>1.352</speed>
      </trkpt>
      <trkpt lat="48.20643433" lon="15.61793067">
        <time>2026-03-04T12:13:59Z</time>
        <course>0.00</course>
        <speed>1.301</speed>
      </trkpt>
      <trkpt lat="48.20643433" lon="15.61793067">
        <time>2026-03-04T12:13:59Z</time>
        <course>0.00</course>
        <speed>1.301</speed>
      </trkpt>
      <trkpt lat="48.20639483" lon="15.61788733">
        <time>2026-03-04T12:14:00Z</time>
        <course>0.00</course>
        <speed>1.743</speed>
      </trkpt>
      <trkpt lat="48.20639483" lon="15.61788733">
        <time>2026-03-04T12:14:00Z</time>
        <course>0.00</course>
        <speed>1.743</speed>
      </trkpt>
      <trkpt lat="48.20639533" lon="15.61789833">
        <time>2026-03-04T12:14:01Z</time>
        <course>0.00</course>
        <speed>1.616</speed>
      </trkpt>
      <trkpt lat="48.20639533" lon="15.61789833">
        <time>2026-03-04T12:14:01Z</time>
        <course>0.00</course>
        <speed>1.616</speed>
      </trkpt>
      <trkpt lat="48.20639083" lon="15.61789917">
        <time>2026-03-04T12:14:02Z</time>
        <course>0.00</course>
        <speed>1.492</speed>
      </trkpt>
      <trkpt lat="48.20639083" lon="15.61789917">
        <time>2026-03-04T12:14:02Z</time>
        <course>0.00</course>
        <speed>1.492</speed>
      </trkpt>
      <trkpt lat="48.20637183" lon="15.61786433">
        <time>2026-03-04T12:14:03Z</time>
        <course>0.00</course>
        <speed>1.440</speed>
      </trkpt>
      <trkpt lat="48.20637183" lon="15.61786433">
        <time>2026-03-04T12:14:03Z</time>
        <course>0.00</course>
        <speed>1.440</speed>
      </trkpt>
      <trkpt lat="48.20637767" lon="15.61787100">
        <time>2026-03-04T12:14:04Z</time>
        <course>0.00</course>
        <speed>1.233</speed>
      </trkpt>
      <trkpt lat="48.20637767" lon="15.61787100">
        <time>2026-03-04T12:14:04Z</time>
        <course>0.00</course>
        <speed>1.233</speed>
      </trkpt>
      <trkpt lat="48.20638317" lon="15.61786367">
        <time>2026-03-04T12:14:05Z</time>
        <course>0.00</course>
        <speed>0.999</speed>
      </trkpt>
      <trkpt lat="48.20638317" lon="15.61786367">
        <time>2026-03-04T12:14:05Z</time>
        <course>0.00</course>
        <speed>0.999</speed>
      </trkpt>
      <trkpt lat="48.20638883" lon="15.61783317">
        <time>2026-03-04T12:14:06Z</time>
        <course>0.00</course>
        <speed>0.875</speed>
      </trkpt>
      <trkpt lat="48.20638883" lon="15.61783317">
        <time>2026-03-04T12:14:06Z</time>
        <course>0.00</course>
        <speed>0.875</speed>
      </trkpt>
      <trkpt lat="48.20637617" lon="15.61781750">
        <time>2026-03-04T12:14:07Z</time>
        <course>0.00</course>
        <speed>1.066</speed>
      </trkpt>
      <trkpt lat="48.20637617" lon="15.61781750">
        <time>2026-03-04T12:14:07Z</time>
        <course>0.00</course>
        <speed>1.066</speed>
      </trkpt>
      <trkpt lat="48.20636700" lon="15.61782633">
        <time>2026-03-04T12:14:08Z</time>
        <course>0.00</course>
        <speed>1.097</speed>
      </trkpt>
      <trkpt lat="48.20636700" lon="15.61782633">
        <time>2026-03-04T12:14:08Z</time>
        <course>0.00</course>
        <speed>1.097</speed>
      </trkpt>
      <trkpt lat="48.20634767" lon="15.61775250">
        <time>2026-03-04T12:14:09Z</time>
        <course>0.00</course>
        <speed>1.302</speed>
      </trkpt>
      <trkpt lat="48.20634767" lon="15.61775250">
        <time>2026-03-04T12:14:09Z</time>
        <course>0.00</course>
        <speed>1.302</speed>
      </trkpt>
      <trkpt lat="48.20630233" lon="15.61773250">
        <time>2026-03-04T12:14:10Z</time>
        <course>0.00</course>
        <speed>1.813</speed>
      </trkpt>
      <trkpt lat="48.20630233" lon="15.61773250">
        <time>2026-03-04T12:14:10Z</time>
        <course>0.00</course>
        <speed>1.813</speed>
      </trkpt>
      <trkpt lat="48.20629567" lon="15.61773067">
        <time>2026-03-04T12:14:11Z</time>
        <course>0.00</course>
        <speed>1.727</speed>
      </trkpt>
      <trkpt lat="48.20629567" lon="15.61773067">
        <time>2026-03-04T12:14:11Z</time>
        <course>0.00</course>
        <speed>1.727</speed>
      </trkpt>
      <trkpt lat="48.20628850" lon="15.61770983">
        <time>2026-03-04T12:14:12Z</time>
        <course>0.00</course>
        <speed>1.409</speed>
      </trkpt>
      <trkpt lat="48.20628850" lon="15.61770983">
        <time>2026-03-04T12:14:12Z</time>
        <course>0.00</course>
        <speed>1.409</speed>
      </trkpt>
      <trkpt lat="48.20627750" lon="15.61770133">
        <time>2026-03-04T12:14:13Z</time>
        <course>0.00</course>
        <speed>1.451</speed>
      </trkpt>
      <trkpt lat="48.20627750" lon="15.61770133">
        <time>2026-03-04T12:14:13Z</time>
        <course>0.00</course>
        <speed>1.451</speed>
      </trkpt>
      <trkpt lat="48.20627750" lon="15.61770033">
        <time>2026-03-04T12:14:14Z</time>
        <course>0.00</course>
        <speed>1.325</speed>
      </trkpt>
      <trkpt lat="48.20627750" lon="15.61770033">
        <time>2026-03-04T12:14:14Z</time>
        <course>0.00</course>
        <speed>1.325</speed>
      </trkpt>
      <trkpt lat="48.20626550" lon="15.61761900">
        <time>2026-03-04T12:14:15Z</time>
        <course>0.00</course>
        <speed>1.333</speed>
      </trkpt>
      <trkpt lat="48.20626550" lon="15.61761900">
        <time>2026-03-04T12:14:15Z</time>
        <course>0.00</course>
        <speed>1.333</speed>
      </trkpt>
      <trkpt lat="48.20626417" lon="15.61760517">
        <time>2026-03-04T12:14:16Z</time>
        <course>0.00</course>
        <speed>1.297</speed>
      </trkpt>
      <trkpt lat="48.20626417" lon="15.61760517">
        <time>2026-03-04T12:14:16Z</time>
        <course>0.00</course>
        <speed>1.297</speed>
      </trkpt>
      <trkpt lat="48.20626450" lon="15.61758450">
        <time>2026-03-04T12:14:17Z</time>
        <course>0.00</course>
        <speed>1.335</speed>
      </trkpt>
      <trkpt lat="48.20626450" lon="15.61758450">
        <time>2026-03-04T12:14:17Z</time>
        <course>0.00</course>
        <speed>1.335</speed>
      </trkpt>
      <trkpt lat="48.20625617" lon="15.61754717">
        <time>2026-03-04T12:14:19Z</time>
        <course>0.00</course>
        <speed>1.387</speed>
      </trkpt>
      <trkpt lat="48.20625617" lon="15.61754717">
        <time>2026-03-04T12:14:19Z</time>
        <course>0.00</course>
        <speed>1.387</speed>
      </trkpt>
      <trkpt lat="48.20626017" lon="15.61753700">
        <time>2026-03-04T12:14:20Z</time>
        <course>0.00</course>
        <speed>1.275</speed>
      </trkpt>
      <trkpt lat="48.20626017" lon="15.61753700">
        <time>2026-03-04T12:14:20Z</time>
        <course>0.00</course>
        <speed>1.275</speed>
      </trkpt>
      <trkpt lat="48.20619433" lon="15.61735800">
        <time>2026-03-04T12:14:23Z</time>
        <course>0.00</course>
        <speed>1.771</speed>
      </trkpt>
      <trkpt lat="48.20619433" lon="15.61735800">
        <time>2026-03-04T12:14:23Z</time>
        <course>0.00</course>
        <speed>1.771</speed>
      </trkpt>
      <trkpt lat="48.20614500" lon="15.61726033">
        <time>2026-03-04T12:14:24Z</time>
        <course>0.00</course>
        <speed>1.973</speed>
      </trkpt>
      <trkpt lat="48.20614500" lon="15.61726033">
        <time>2026-03-04T12:14:24Z</time>
        <course>0.00</course>
        <speed>1.973</speed>
      </trkpt>
      <trkpt lat="48.20631733" lon="15.61693350">
        <time>2026-03-04T12:14:26Z</time>
        <course>0.00</course>
        <speed>2.882</speed>
      </trkpt>
      <trkpt lat="48.20631733" lon="15.61693350">
        <time>2026-03-04T12:14:26Z</time>
        <course>0.00</course>
        <speed>2.882</speed>
      </trkpt>
      <trkpt lat="48.20642800" lon="15.61679067">
        <time>2026-03-04T12:14:27Z</time>
        <course>323.76</course>
        <speed>3.675</speed>
      </trkpt>
      <trkpt lat="48.20642800" lon="15.61679067">
        <time>2026-03-04T12:14:27Z</time>
        <course>323.76</course>
        <speed>3.675</speed>
      </trkpt>
      <trkpt lat="48.20649283" lon="15.61668900">
        <time>2026-03-04T12:14:28Z</time>
        <course>304.69</course>
        <speed>4.167</speed>
      </trkpt>
      <trkpt lat="48.20649283" lon="15.61668900">
        <time>2026-03-04T12:14:28Z</time>
        <course>304.69</course>
        <speed>4.167</speed>
      </trkpt>
      <trkpt lat="48.20655000" lon="15.61660483">
        <time>2026-03-04T12:14:29Z</time>
        <course>298.12</course>
        <speed>4.478</speed>
      </trkpt>
      <trkpt lat="48.20655000" lon="15.61660483">
        <time>2026-03-04T12:14:29Z</time>
        <course>298.12</course>
        <speed>4.478</speed>
      </trkpt>
      <trkpt lat="48.20663683" lon="15.61659350">
        <time>2026-03-04T12:14:30Z</time>
        <course>300.88</course>
        <speed>4.435</speed>
      </trkpt>
      <trkpt lat="48.20663683" lon="15.61659350">
        <time>2026-03-04T12:14:30Z</time>
        <course>300.88</course>
        <speed>4.435</speed>
      </trkpt>
      <trkpt lat="48.20670467" lon="15.61655900">
        <time>2026-03-04T12:14:31Z</time>
        <course>305.38</course>
        <speed>4.467</speed>
      </trkpt>
      <trkpt lat="48.20670467" lon="15.61655900">
        <time>2026-03-04T12:14:31Z</time>
        <course>305.38</course>
        <speed>4.467</speed>
      </trkpt>
      <trkpt lat="48.20676667" lon="15.61652050">
        <time>2026-03-04T12:14:32Z</time>
        <course>309.67</course>
        <speed>4.555</speed>
      </trkpt>
      <trkpt lat="48.20676667" lon="15.61652050">
        <time>2026-03-04T12:14:32Z</time>
        <course>309.67</course>
        <speed>4.555</speed>
      </trkpt>
      <trkpt lat="48.20682767" lon="15.61647683">
        <time>2026-03-04T12:14:33Z</time>
        <course>313.22</course>
        <speed>4.774</speed>
      </trkpt>
      <trkpt lat="48.20682767" lon="15.61647683">
        <time>2026-03-04T12:14:33Z</time>
        <course>313.22</course>
        <speed>4.774</speed>
      </trkpt>
      <trkpt lat="48.20686167" lon="15.61640233">
        <time>2026-03-04T12:14:34Z</time>
        <course>312.54</course>
        <speed>4.856</speed>
      </trkpt>
      <trkpt lat="48.20686167" lon="15.61640233">
        <time>2026-03-04T12:14:34Z</time>
        <course>312.54</course>
        <speed>4.856</speed>
      </trkpt>
      <trkpt lat="48.20691500" lon="15.61638183">
        <time>2026-03-04T12:14:35Z</time>
        <course>315.03</course>
        <speed>4.613</speed>
      </trkpt>
      <trkpt lat="48.20691500" lon="15.61638183">
        <time>2026-03-04T12:14:35Z</time>
        <course>315.03</course>
        <speed>4.613</speed>
      </trkpt>
      <trkpt lat="48.20697167" lon="15.61635817">
        <time>2026-03-04T12:14:36Z</time>
        <course>318.58</course>
        <speed>4.588</speed>
      </trkpt>
      <trkpt lat="48.20697167" lon="15.61635817">
        <time>2026-03-04T12:14:36Z</time>
        <course>318.58</course>
        <speed>4.588</speed>
      </trkpt>
      <trkpt lat="48.20699117" lon="15.61632700">
        <time>2026-03-04T12:14:37Z</time>
        <course>319.86</course>
        <speed>4.250</speed>
      </trkpt>
      <trkpt lat="48.20699117" lon="15.61632700">
        <time>2026-03-04T12:14:37Z</time>
        <course>319.86</course>
        <speed>4.250</speed>
      </trkpt>
      <trkpt lat="48.20702417" lon="15.61629867">
        <time>2026-03-04T12:14:38Z</time>
        <course>321.01</course>
        <speed>4.192</speed>
      </trkpt>
      <trkpt lat="48.20702417" lon="15.61629867">
        <time>2026-03-04T12:14:38Z</time>
        <course>321.01</course>
        <speed>4.192</speed>
      </trkpt>
      <trkpt lat="48.20671167" lon="15.61623433">
        <time>2026-03-04T12:14:50Z</time>
        <course>0.00</course>
        <speed>0.590</speed>
      </trkpt>
      <trkpt lat="48.20671167" lon="15.61623433">
        <time>2026-03-04T12:14:50Z</time>
        <course>0.00</course>
        <speed>0.590</speed>
      </trkpt>
      <trkpt lat="48.20664783" lon="15.61624233">
        <time>2026-03-04T12:14:51Z</time>
        <course>0.00</course>
        <speed>0.452</speed>
      </trkpt>
      <trkpt lat="48.20664783" lon="15.61624233">
        <time>2026-03-04T12:14:51Z</time>
        <course>0.00</course>
        <speed>0.452</speed>
      </trkpt>
      <trkpt lat="48.20661117" lon="15.61624033">
        <time>2026-03-04T12:14:52Z</time>
        <course>0.00</course>
        <speed>0.488</speed>
      </trkpt>
      <trkpt lat="48.20661117" lon="15.61624033">
        <time>2026-03-04T12:14:52Z</time>
        <course>0.00</course>
        <speed>0.488</speed>
      </trkpt>
      <trkpt lat="48.20658883" lon="15.61623183">
        <time>2026-03-04T12:14:53Z</time>
        <course>0.00</course>
        <speed>0.615</speed>
      </trkpt>
      <trkpt lat="48.20658883" lon="15.61623183">
        <time>2026-03-04T12:14:53Z</time>
        <course>0.00</course>
        <speed>0.615</speed>
      </trkpt>
      <trkpt lat="48.20656450" lon="15.61622900">
        <time>2026-03-04T12:14:54Z</time>
        <course>0.00</course>
        <speed>0.615</speed>
      </trkpt>
      <trkpt lat="48.20656450" lon="15.61622900">
        <time>2026-03-04T12:14:54Z</time>
        <course>0.00</course>
        <speed>0.615</speed>
      </trkpt>
      <trkpt lat="48.20655183" lon="15.61623017">
        <time>2026-03-04T12:14:55Z</time>
        <course>0.00</course>
        <speed>0.498</speed>
      </trkpt>
      <trkpt lat="48.20655183" lon="15.61623017">
        <time>2026-03-04T12:14:55Z</time>
        <course>0.00</course>
        <speed>0.498</speed>
      </trkpt>
      <trkpt lat="48.20640033" lon="15.61636633">
        <time>2026-03-04T12:14:58Z</time>
        <course>209.56</course>
        <speed>3.248</speed>
      </trkpt>
      <trkpt lat="48.20640033" lon="15.61636633">
        <time>2026-03-04T12:14:58Z</time>
        <course>209.56</course>
        <speed>3.248</speed>
      </trkpt>
      <trkpt lat="48.20632650" lon="15.61640800">
        <time>2026-03-04T12:14:59Z</time>
        <course>170.15</course>
        <speed>3.633</speed>
      </trkpt>
      <trkpt lat="48.20632650" lon="15.61640800">
        <time>2026-03-04T12:14:59Z</time>
        <course>170.15</course>
        <speed>3.633</speed>
      </trkpt>
      <trkpt lat="48.20625317" lon="15.61643150">
        <time>2026-03-04T12:15:00Z</time>
        <course>155.52</course>
        <speed>3.831</speed>
      </trkpt>
      <trkpt lat="48.20625317" lon="15.61643150">
        <time>2026-03-04T12:15:00Z</time>
        <course>155.52</course>
        <speed>3.831</speed>
      </trkpt>
      <trkpt lat="48.20618717" lon="15.61647400">
        <time>2026-03-04T12:15:01Z</time>
        <course>148.43</course>
        <speed>4.265</speed>
      </trkpt>
      <trkpt lat="48.20618717" lon="15.61647400">
        <time>2026-03-04T12:15:01Z</time>
        <course>148.43</course>
        <speed>4.265</speed>
      </trkpt>
      <trkpt lat="48.20612283" lon="15.61651783">
        <time>2026-03-04T12:15:02Z</time>
        <course>145.21</course>
        <speed>4.648</speed>
      </trkpt>
      <trkpt lat="48.20612283" lon="15.61651783">
        <time>2026-03-04T12:15:02Z</time>
        <course>145.21</course>
        <speed>4.648</speed>
      </trkpt>
      <trkpt lat="48.20605617" lon="15.61656883">
        <time>2026-03-04T12:15:03Z</time>
        <course>143.29</course>
        <speed>5.023</speed>
      </trkpt>
      <trkpt lat="48.20605617" lon="15.61656883">
        <time>2026-03-04T12:15:03Z</time>
        <course>143.29</course>
        <speed>5.023</speed>
      </trkpt>
      <trkpt lat="48.20600567" lon="15.61660033">
        <time>2026-03-04T12:15:04Z</time>
        <course>142.83</course>
        <speed>4.879</speed>
      </trkpt>
      <trkpt lat="48.20600567" lon="15.61660033">
        <time>2026-03-04T12:15:04Z</time>
        <course>142.83</course>
        <speed>4.879</speed>
      </trkpt>
      <trkpt lat="48.20594733" lon="15.61663667">
        <time>2026-03-04T12:15:05Z</time>
        <course>142.75</course>
        <speed>4.941</speed>
      </trkpt>
      <trkpt lat="48.20594733" lon="15.61663667">
        <time>2026-03-04T12:15:05Z</time>
        <course>142.75</course>
        <speed>4.941</speed>
      </trkpt>
      <trkpt lat="48.20575333" lon="15.61645233">
        <time>2026-03-04T12:15:10Z</time>
        <course>174.08</course>
        <speed>2.866</speed>
      </trkpt>
      <trkpt lat="48.20575333" lon="15.61645233">
        <time>2026-03-04T12:15:10Z</time>
        <course>174.08</course>
        <speed>2.866</speed>
      </trkpt>
      <trkpt lat="48.20578983" lon="15.61611117">
        <time>2026-03-04T12:15:20Z</time>
        <course>0.00</course>
        <speed>0.968</speed>
      </trkpt>
      <trkpt lat="48.20578983" lon="15.61611117">
        <time>2026-03-04T12:15:20Z</time>
        <course>0.00</course>
        <speed>0.968</speed>
      </trkpt>
      <trkpt lat="48.20588683" lon="15.61608650">
        <time>2026-03-04T12:15:21Z</time>
        <course>0.00</course>
        <speed>0.671</speed>
      </trkpt>
      <trkpt lat="48.20588683" lon="15.61608650">
        <time>2026-03-04T12:15:21Z</time>
        <course>0.00</course>
        <speed>0.671</speed>
      </trkpt>
      <trkpt lat="48.20593183" lon="15.61607317">
        <time>2026-03-04T12:15:22Z</time>
        <course>0.00</course>
        <speed>0.401</speed>
      </trkpt>
      <trkpt lat="48.20593183" lon="15.61607317">
        <time>2026-03-04T12:15:22Z</time>
        <course>0.00</course>
        <speed>0.401</speed>
      </trkpt>
      <trkpt lat="48.20595800" lon="15.61606400">
        <time>2026-03-04T12:15:23Z</time>
        <course>0.00</course>
        <speed>0.168</speed>
      </trkpt>
      <trkpt lat="48.20595800" lon="15.61606400">
        <time>2026-03-04T12:15:23Z</time>
        <course>0.00</course>
        <speed>0.168</speed>
      </trkpt>
      <trkpt lat="48.20595267" lon="15.61602233">
        <time>2026-03-04T12:15:24Z</time>
        <course>0.00</course>
        <speed>0.452</speed>
      </trkpt>
      <trkpt lat="48.20595267" lon="15.61602233">
        <time>2026-03-04T12:15:24Z</time>
        <course>0.00</course>
        <speed>0.452</speed>
      </trkpt>
      <trkpt lat="48.20596233" lon="15.61600667">
        <time>2026-03-04T12:15:25Z</time>
        <course>0.00</course>
        <speed>0.561</speed>
      </trkpt>
      <trkpt lat="48.20596233" lon="15.61600667">
        <time>2026-03-04T12:15:25Z</time>
        <course>0.00</course>
        <speed>0.561</speed>
      </trkpt>
      <trkpt lat="48.20597033" lon="15.61599633">
        <time>2026-03-04T12:15:26Z</time>
        <course>0.00</course>
        <speed>0.497</speed>
      </trkpt>
      <trkpt lat="48.20597033" lon="15.61599633">
        <time>2026-03-04T12:15:26Z</time>
        <course>0.00</course>
        <speed>0.497</speed>
      </trkpt>
      <trkpt lat="48.20596683" lon="15.61597583">
        <time>2026-03-04T12:15:27Z</time>
        <course>0.00</course>
        <speed>0.615</speed>
      </trkpt>
      <trkpt lat="48.20596683" lon="15.61597583">
        <time>2026-03-04T12:15:27Z</time>
        <course>0.00</course>
        <speed>0.615</speed>
      </trkpt>
      <trkpt lat="48.20595800" lon="15.61594400">
        <time>2026-03-04T12:15:28Z</time>
        <course>0.00</course>
        <speed>0.863</speed>
      </trkpt>
      <trkpt lat="48.20595800" lon="15.61594400">
        <time>2026-03-04T12:15:28Z</time>
        <course>0.00</course>
        <speed>0.863</speed>
      </trkpt>
      <trkpt lat="48.20595350" lon="15.61590867">
        <time>2026-03-04T12:15:29Z</time>
        <course>0.00</course>
        <speed>1.035</speed>
      </trkpt>
      <trkpt lat="48.20595350" lon="15.61590867">
        <time>2026-03-04T12:15:29Z</time>
        <course>0.00</course>
        <speed>1.035</speed>
      </trkpt>
      <trkpt lat="48.20593317" lon="15.61587883">
        <time>2026-03-04T12:15:30Z</time>
        <course>0.00</course>
        <speed>0.977</speed>
      </trkpt>
      <trkpt lat="48.20593317" lon="15.61587883">
        <time>2026-03-04T12:15:30Z</time>
        <course>0.00</course>
        <speed>0.977</speed>
      </trkpt>
      <trkpt lat="48.20593117" lon="15.61586150">
        <time>2026-03-04T12:15:31Z</time>
        <course>0.00</course>
        <speed>0.824</speed>
      </trkpt>
      <trkpt lat="48.20593117" lon="15.61586150">
        <time>2026-03-04T12:15:31Z</time>
        <course>0.00</course>
        <speed>0.824</speed>
      </trkpt>
      <trkpt lat="48.20592267" lon="15.61583667">
        <time>2026-03-04T12:15:32Z</time>
        <course>0.00</course>
        <speed>0.970</speed>
      </trkpt>
      <trkpt lat="48.20592267" lon="15.61583667">
        <time>2026-03-04T12:15:32Z</time>
        <course>0.00</course>
        <speed>0.970</speed>
      </trkpt>
      <trkpt lat="48.20592167" lon="15.61582367">
        <time>2026-03-04T12:15:33Z</time>
        <course>0.00</course>
        <speed>0.928</speed>
      </trkpt>
      <trkpt lat="48.20592167" lon="15.61582367">
        <time>2026-03-04T12:15:33Z</time>
        <course>0.00</course>
        <speed>0.928</speed>
      </trkpt>
      <trkpt lat="48.20591050" lon="15.61580750">
        <time>2026-03-04T12:15:34Z</time>
        <course>0.00</course>
        <speed>0.912</speed>
      </trkpt>
      <trkpt lat="48.20591050" lon="15.61580750">
        <time>2026-03-04T12:15:34Z</time>
        <course>0.00</course>
        <speed>0.912</speed>
      </trkpt>
      <trkpt lat="48.20590350" lon="15.61578667">
        <time>2026-03-04T12:15:35Z</time>
        <course>0.00</course>
        <speed>0.950</speed>
      </trkpt>
      <trkpt lat="48.20590350" lon="15.61578667">
        <time>2026-03-04T12:15:35Z</time>
        <course>0.00</course>
        <speed>0.950</speed>
      </trkpt>
      <trkpt lat="48.20588933" lon="15.61576700">
        <time>2026-03-04T12:15:36Z</time>
        <course>0.00</course>
        <speed>1.127</speed>
      </trkpt>
      <trkpt lat="48.20588933" lon="15.61576700">
        <time>2026-03-04T12:15:36Z</time>
        <course>0.00</course>
        <speed>1.127</speed>
      </trkpt>
      <trkpt lat="48.20588283" lon="15.61575500">
        <time>2026-03-04T12:15:37Z</time>
        <course>0.00</course>
        <speed>0.922</speed>
      </trkpt>
      <trkpt lat="48.20588283" lon="15.61575500">
        <time>2026-03-04T12:15:37Z</time>
        <course>0.00</course>
        <speed>0.922</speed>
      </trkpt>
      <trkpt lat="48.20587817" lon="15.61574683">
        <time>2026-03-04T12:15:38Z</time>
        <course>0.00</course>
        <speed>0.861</speed>
      </trkpt>
      <trkpt lat="48.20587817" lon="15.61574683">
        <time>2026-03-04T12:15:38Z</time>
        <course>0.00</course>
        <speed>0.861</speed>
      </trkpt>
      <trkpt lat="48.20587150" lon="15.61572950">
        <time>2026-03-04T12:15:39Z</time>
        <course>0.00</course>
        <speed>0.985</speed>
      </trkpt>
      <trkpt lat="48.20587150" lon="15.61572950">
        <time>2026-03-04T12:15:39Z</time>
        <course>0.00</course>
        <speed>0.985</speed>
      </trkpt>
      <trkpt lat="48.20585783" lon="15.61571517">
        <time>2026-03-04T12:15:40Z</time>
        <course>209.24</course>
        <speed>1.271</speed>
      </trkpt>
      <trkpt lat="48.20585783" lon="15.61571517">
        <time>2026-03-04T12:15:40Z</time>
        <course>209.24</course>
        <speed>1.271</speed>
      </trkpt>
      <trkpt lat="48.20585100" lon="15.61570600">
        <time>2026-03-04T12:15:41Z</time>
        <course>208.96</course>
        <speed>1.204</speed>
      </trkpt>
      <trkpt lat="48.20585100" lon="15.61570600">
        <time>2026-03-04T12:15:41Z</time>
        <course>208.96</course>
        <speed>1.204</speed>
      </trkpt>
      <trkpt lat="48.20584400" lon="15.61569750">
        <time>2026-03-04T12:15:42Z</time>
        <course>204.23</course>
        <speed>1.115</speed>
      </trkpt>
      <trkpt lat="48.20584400" lon="15.61569750">
        <time>2026-03-04T12:15:42Z</time>
        <course>204.23</course>
        <speed>1.115</speed>
      </trkpt>
      <trkpt lat="48.20583050" lon="15.61568350">
        <time>2026-03-04T12:15:43Z</time>
        <course>199.82</course>
        <speed>1.284</speed>
      </trkpt>
      <trkpt lat="48.20583050" lon="15.61568350">
        <time>2026-03-04T12:15:43Z</time>
        <course>199.82</course>
        <speed>1.284</speed>
      </trkpt>
      <trkpt lat="48.20581617" lon="15.61567400">
        <time>2026-03-04T12:15:44Z</time>
        <course>199.39</course>
        <speed>1.368</speed>
      </trkpt>
      <trkpt lat="48.20581617" lon="15.61567400">
        <time>2026-03-04T12:15:44Z</time>
        <course>199.39</course>
        <speed>1.368</speed>
      </trkpt>
      <trkpt lat="48.20580533" lon="15.61566683">
        <time>2026-03-04T12:15:45Z</time>
        <course>203.92</course>
        <speed>1.350</speed>
      </trkpt>
      <trkpt lat="48.20580533" lon="15.61566683">
        <time>2026-03-04T12:15:45Z</time>
        <course>203.92</course>
        <speed>1.350</speed>
      </trkpt>
      <trkpt lat="48.20578783" lon="15.61565583">
        <time>2026-03-04T12:15:46Z</time>
        <course>203.82</course>
        <speed>1.506</speed>
      </trkpt>
      <trkpt lat="48.20578783" lon="15.61565583">
        <time>2026-03-04T12:15:46Z</time>
        <course>203.82</course>
        <speed>1.506</speed>
      </trkpt>
      <trkpt lat="48.20577417" lon="15.61565100">
        <time>2026-03-04T12:15:47Z</time>
        <course>198.03</course>
        <speed>1.509</speed>
      </trkpt>
      <trkpt lat="48.20577417" lon="15.61565100">
        <time>2026-03-04T12:15:47Z</time>
        <course>198.03</course>
        <speed>1.509</speed>
      </trkpt>
      <trkpt lat="48.20571983" lon="15.61557933">
        <time>2026-03-04T12:15:54Z</time>
        <course>198.05</course>
        <speed>1.205</speed>
      </trkpt>
      <trkpt lat="48.20571983" lon="15.61557933">
        <time>2026-03-04T12:15:54Z</time>
        <course>198.05</course>
        <speed>1.205</speed>
      </trkpt>
      <trkpt lat="48.20572167" lon="15.61557033">
        <time>2026-03-04T12:15:55Z</time>
        <course>197.60</course>
        <speed>1.337</speed>
      </trkpt>
      <trkpt lat="48.20572167" lon="15.61557033">
        <time>2026-03-04T12:15:55Z</time>
        <course>197.60</course>
        <speed>1.337</speed>
      </trkpt>
      <trkpt lat="48.20563133" lon="15.61551267">
        <time>2026-03-04T12:16:04Z</time>
        <course>184.47</course>
        <speed>1.008</speed>
      </trkpt>
      <trkpt lat="48.20563133" lon="15.61551267">
        <time>2026-03-04T12:16:04Z</time>
        <course>184.47</course>
        <speed>1.008</speed>
      </trkpt>
      <trkpt lat="48.20563433" lon="15.61550950">
        <time>2026-03-04T12:16:05Z</time>
        <course>182.99</course>
        <speed>0.966</speed>
      </trkpt>
      <trkpt lat="48.20563433" lon="15.61550950">
        <time>2026-03-04T12:16:05Z</time>
        <course>182.99</course>
        <speed>0.966</speed>
      </trkpt>
      <trkpt lat="48.20563700" lon="15.61550133">
        <time>2026-03-04T12:16:06Z</time>
        <course>0.00</course>
        <speed>0.939</speed>
      </trkpt>
      <trkpt lat="48.20563700" lon="15.61550133">
        <time>2026-03-04T12:16:06Z</time>
        <course>0.00</course>
        <speed>0.939</speed>
      </trkpt>
      <trkpt lat="48.20563950" lon="15.61549550">
        <time>2026-03-04T12:16:07Z</time>
        <course>0.00</course>
        <speed>0.927</speed>
      </trkpt>
      <trkpt lat="48.20563950" lon="15.61549550">
        <time>2026-03-04T12:16:07Z</time>
        <course>0.00</course>
        <speed>0.927</speed>
      </trkpt>
      <trkpt lat="48.20563933" lon="15.61549900">
        <time>2026-03-04T12:16:08Z</time>
        <course>0.00</course>
        <speed>0.972</speed>
      </trkpt>
      <trkpt lat="48.20563933" lon="15.61549900">
        <time>2026-03-04T12:16:08Z</time>
        <course>0.00</course>
        <speed>0.972</speed>
      </trkpt>
      <trkpt lat="48.20563383" lon="15.61549367">
        <time>2026-03-04T12:16:09Z</time>
        <course>0.00</course>
        <speed>1.021</speed>
      </trkpt>
      <trkpt lat="48.20563383" lon="15.61549367">
        <time>2026-03-04T12:16:09Z</time>
        <course>0.00</course>
        <speed>1.021</speed>
      </trkpt>
      <trkpt lat="48.20563317" lon="15.61548600">
        <time>2026-03-04T12:16:10Z</time>
        <course>0.00</course>
        <speed>0.934</speed>
      </trkpt>
      <trkpt lat="48.20563317" lon="15.61548600">
        <time>2026-03-04T12:16:10Z</time>
        <course>0.00</course>
        <speed>0.934</speed>
      </trkpt>
      <trkpt lat="48.20563383" lon="15.61548617">
        <time>2026-03-04T12:16:11Z</time>
        <course>0.00</course>
        <speed>0.816</speed>
      </trkpt>
      <trkpt lat="48.20563383" lon="15.61548617">
        <time>2026-03-04T12:16:11Z</time>
        <course>0.00</course>
        <speed>0.816</speed>
      </trkpt>
      <trkpt lat="48.20563133" lon="15.61547733">
        <time>2026-03-04T12:16:12Z</time>
        <course>0.00</course>
        <speed>0.791</speed>
      </trkpt>
      <trkpt lat="48.20563133" lon="15.61547733">
        <time>2026-03-04T12:16:12Z</time>
        <course>0.00</course>
        <speed>0.791</speed>
      </trkpt>
      <trkpt lat="48.20562683" lon="15.61547417">
        <time>2026-03-04T12:16:13Z</time>
        <course>0.00</course>
        <speed>0.835</speed>
      </trkpt>
      <trkpt lat="48.20562683" lon="15.61547417">
        <time>2026-03-04T12:16:13Z</time>
        <course>0.00</course>
        <speed>0.835</speed>
      </trkpt>
      <trkpt lat="48.20561850" lon="15.61546417">
        <time>2026-03-04T12:16:14Z</time>
        <course>0.00</course>
        <speed>0.960</speed>
      </trkpt>
      <trkpt lat="48.20561850" lon="15.61546417">
        <time>2026-03-04T12:16:14Z</time>
        <course>0.00</course>
        <speed>0.960</speed>
      </trkpt>
      <trkpt lat="48.20560417" lon="15.61545950">
        <time>2026-03-04T12:16:15Z</time>
        <course>0.00</course>
        <speed>1.157</speed>
      </trkpt>
      <trkpt lat="48.20560417" lon="15.61545950">
        <time>2026-03-04T12:16:15Z</time>
        <course>0.00</course>
        <speed>1.157</speed>
      </trkpt>
      <trkpt lat="48.20559217" lon="15.61544150">
        <time>2026-03-04T12:16:16Z</time>
        <course>197.06</course>
        <speed>1.301</speed>
      </trkpt>
      <trkpt lat="48.20559217" lon="15.61544150">
        <time>2026-03-04T12:16:16Z</time>
        <course>197.06</course>
        <speed>1.301</speed>
      </trkpt>
      <trkpt lat="48.20557083" lon="15.61543650">
        <time>2026-03-04T12:16:17Z</time>
        <course>198.58</course>
        <speed>1.564</speed>
      </trkpt>
      <trkpt lat="48.20557083" lon="15.61543650">
        <time>2026-03-04T12:16:17Z</time>
        <course>198.58</course>
        <speed>1.564</speed>
      </trkpt>
      <trkpt lat="48.20555950" lon="15.61542933">
        <time>2026-03-04T12:16:18Z</time>
        <course>198.93</course>
        <speed>1.539</speed>
      </trkpt>
      <trkpt lat="48.20555950" lon="15.61542933">
        <time>2026-03-04T12:16:18Z</time>
        <course>198.93</course>
        <speed>1.539</speed>
      </trkpt>
      <trkpt lat="48.20554583" lon="15.61542133">
        <time>2026-03-04T12:16:19Z</time>
        <course>199.46</course>
        <speed>1.575</speed>
      </trkpt>
      <trkpt lat="48.20554583" lon="15.61542133">
        <time>2026-03-04T12:16:19Z</time>
        <course>199.46</course>
        <speed>1.575</speed>
      </trkpt>
      <trkpt lat="48.20553333" lon="15.61540983">
        <time>2026-03-04T12:16:20Z</time>
        <course>197.91</course>
        <speed>1.605</speed>
      </trkpt>
      <trkpt lat="48.20553333" lon="15.61540983">
        <time>2026-03-04T12:16:20Z</time>
        <course>197.91</course>
        <speed>1.605</speed>
      </trkpt>
      <trkpt lat="48.20552083" lon="15.61540650">
        <time>2026-03-04T12:16:21Z</time>
        <course>193.91</course>
        <speed>1.567</speed>
      </trkpt>
      <trkpt lat="48.20552083" lon="15.61540650">
        <time>2026-03-04T12:16:21Z</time>
        <course>193.91</course>
        <speed>1.567</speed>
      </trkpt>
      <trkpt lat="48.20550750" lon="15.61539317">
        <time>2026-03-04T12:16:22Z</time>
        <course>200.48</course>
        <speed>1.633</speed>
      </trkpt>
      <trkpt lat="48.20550750" lon="15.61539317">
        <time>2026-03-04T12:16:22Z</time>
        <course>200.48</course>
        <speed>1.633</speed>
      </trkpt>
      <trkpt lat="48.20550017" lon="15.61538533">
        <time>2026-03-04T12:16:23Z</time>
        <course>204.69</course>
        <speed>1.435</speed>
      </trkpt>
      <trkpt lat="48.20550017" lon="15.61538533">
        <time>2026-03-04T12:16:23Z</time>
        <course>204.69</course>
        <speed>1.435</speed>
      </trkpt>
      <trkpt lat="48.20548950" lon="15.61537633">
        <time>2026-03-04T12:16:24Z</time>
        <course>205.30</course>
        <speed>1.297</speed>
      </trkpt>
      <trkpt lat="48.20548950" lon="15.61537633">
        <time>2026-03-04T12:16:24Z</time>
        <course>205.30</course>
        <speed>1.297</speed>
      </trkpt>
      <trkpt lat="48.20547617" lon="15.61537000">
        <time>2026-03-04T12:16:25Z</time>
        <course>204.94</course>
        <speed>1.310</speed>
      </trkpt>
      <trkpt lat="48.20547617" lon="15.61537000">
        <time>2026-03-04T12:16:25Z</time>
        <course>204.94</course>
        <speed>1.310</speed>
      </trkpt>
      <trkpt lat="48.20546283" lon="15.61535900">
        <time>2026-03-04T12:16:26Z</time>
        <course>205.88</course>
        <speed>1.276</speed>
      </trkpt>
      <trkpt lat="48.20546283" lon="15.61535900">
        <time>2026-03-04T12:16:26Z</time>
        <course>205.88</course>
        <speed>1.276</speed>
      </trkpt>
      <trkpt lat="48.20545650" lon="15.61534750">
        <time>2026-03-04T12:16:27Z</time>
        <course>212.59</course>
        <speed>1.056</speed>
      </trkpt>
      <trkpt lat="48.20545650" lon="15.61534750">
        <time>2026-03-04T12:16:27Z</time>
        <course>212.59</course>
        <speed>1.056</speed>
      </trkpt>
      <trkpt lat="48.20544850" lon="15.61533367">
        <time>2026-03-04T12:16:28Z</time>
        <course>223.73</course>
        <speed>0.970</speed>
      </trkpt>
      <trkpt lat="48.20544850" lon="15.61533367">
        <time>2026-03-04T12:16:28Z</time>
        <course>223.73</course>
        <speed>0.970</speed>
      </trkpt>
      <trkpt lat="48.20544933" lon="15.61532533">
        <time>2026-03-04T12:16:29Z</time>
        <course>0.00</course>
        <speed>0.899</speed>
      </trkpt>
      <trkpt lat="48.20544933" lon="15.61532533">
        <time>2026-03-04T12:16:29Z</time>
        <course>0.00</course>
        <speed>0.899</speed>
      </trkpt>
      <trkpt lat="48.20545050" lon="15.61531633">
        <time>2026-03-04T12:16:30Z</time>
        <course>0.00</course>
        <speed>0.838</speed>
      </trkpt>
      <trkpt lat="48.20545050" lon="15.61531633">
        <time>2026-03-04T12:16:30Z</time>
        <course>0.00</course>
        <speed>0.838</speed>
      </trkpt>
      <trkpt lat="48.20544583" lon="15.61529633">
        <time>2026-03-04T12:16:31Z</time>
        <course>0.00</course>
        <speed>1.098</speed>
      </trkpt>
      <trkpt lat="48.20544583" lon="15.61529633">
        <time>2026-03-04T12:16:31Z</time>
        <course>0.00</course>
        <speed>1.098</speed>
      </trkpt>
      <trkpt lat="48.20544917" lon="15.61528617">
        <time>2026-03-04T12:16:32Z</time>
        <course>0.00</course>
        <speed>1.073</speed>
      </trkpt>
      <trkpt lat="48.20544917" lon="15.61528617">
        <time>2026-03-04T12:16:32Z</time>
        <course>0.00</course>
        <speed>1.073</speed>
      </trkpt>
      <trkpt lat="48.20545250" lon="15.61527750">
        <time>2026-03-04T12:16:33Z</time>
        <course>0.00</course>
        <speed>0.936</speed>
      </trkpt>
      <trkpt lat="48.20545250" lon="15.61527750">
        <time>2026-03-04T12:16:33Z</time>
        <course>0.00</course>
        <speed>0.936</speed>
      </trkpt>
      <trkpt lat="48.20545033" lon="15.61525867">
        <time>2026-03-04T12:16:34Z</time>
        <course>0.00</course>
        <speed>1.038</speed>
      </trkpt>
      <trkpt lat="48.20545033" lon="15.61525867">
        <time>2026-03-04T12:16:34Z</time>
        <course>0.00</course>
        <speed>1.038</speed>
      </trkpt>
      <trkpt lat="48.20544867" lon="15.61523650">
        <time>2026-03-04T12:16:35Z</time>
        <course>0.00</course>
        <speed>1.188</speed>
      </trkpt>
      <trkpt lat="48.20544867" lon="15.61523650">
        <time>2026-03-04T12:16:35Z</time>
        <course>0.00</course>
        <speed>1.188</speed>
      </trkpt>
      <trkpt lat="48.20544400" lon="15.61523300">
        <time>2026-03-04T12:16:36Z</time>
        <course>0.00</course>
        <speed>0.884</speed>
      </trkpt>
      <trkpt lat="48.20544400" lon="15.61523300">
        <time>2026-03-04T12:16:36Z</time>
        <course>0.00</course>
        <speed>0.884</speed>
      </trkpt>
      <trkpt lat="48.20544000" lon="15.61521617">
        <time>2026-03-04T12:16:37Z</time>
        <course>0.00</course>
        <speed>0.942</speed>
      </trkpt>
      <trkpt lat="48.20544000" lon="15.61521617">
        <time>2026-03-04T12:16:37Z</time>
        <course>0.00</course>
        <speed>0.942</speed>
      </trkpt>
      <trkpt lat="48.20544400" lon="15.61519817">
        <time>2026-03-04T12:16:38Z</time>
        <course>0.00</course>
        <speed>1.080</speed>
      </trkpt>
      <trkpt lat="48.20544400" lon="15.61519817">
        <time>2026-03-04T12:16:38Z</time>
        <course>0.00</course>
        <speed>1.080</speed>
      </trkpt>
      <trkpt lat="48.20545183" lon="15.61515233">
        <time>2026-03-04T12:16:39Z</time>
        <course>0.00</course>
        <speed>1.865</speed>
      </trkpt>
      <trkpt lat="48.20545183" lon="15.61515233">
        <time>2026-03-04T12:16:39Z</time>
        <course>0.00</course>
        <speed>1.865</speed>
      </trkpt>
      <trkpt lat="48.20545517" lon="15.61512550">
        <time>2026-03-04T12:16:40Z</time>
        <course>0.00</course>
        <speed>1.811</speed>
      </trkpt>
      <trkpt lat="48.20545517" lon="15.61512550">
        <time>2026-03-04T12:16:40Z</time>
        <course>0.00</course>
        <speed>1.811</speed>
      </trkpt>
      <trkpt lat="48.20545783" lon="15.61510367">
        <time>2026-03-04T12:16:41Z</time>
        <course>0.00</course>
        <speed>1.622</speed>
      </trkpt>
      <trkpt lat="48.20545783" lon="15.61510367">
        <time>2026-03-04T12:16:41Z</time>
        <course>0.00</course>
        <speed>1.622</speed>
      </trkpt>
      <trkpt lat="48.20544650" lon="15.61508650">
        <time>2026-03-04T12:16:42Z</time>
        <course>0.00</course>
        <speed>1.339</speed>
      </trkpt>
      <trkpt lat="48.20544650" lon="15.61508650">
        <time>2026-03-04T12:16:42Z</time>
        <course>0.00</course>
        <speed>1.339</speed>
      </trkpt>
      <trkpt lat="48.20544867" lon="15.61508283">
        <time>2026-03-04T12:16:43Z</time>
        <course>0.00</course>
        <speed>1.020</speed>
      </trkpt>
      <trkpt lat="48.20544867" lon="15.61508283">
        <time>2026-03-04T12:16:43Z</time>
        <course>0.00</course>
        <speed>1.020</speed>
      </trkpt>
      <trkpt lat="48.20545117" lon="15.61506617">
        <time>2026-03-04T12:16:44Z</time>
        <course>0.00</course>
        <speed>0.957</speed>
      </trkpt>
      <trkpt lat="48.20545117" lon="15.61506617">
        <time>2026-03-04T12:16:44Z</time>
        <course>0.00</course>
        <speed>0.957</speed>
      </trkpt>
      <trkpt lat="48.20544967" lon="15.61505483">
        <time>2026-03-04T12:16:45Z</time>
        <course>0.00</course>
        <speed>0.920</speed>
      </trkpt>
      <trkpt lat="48.20544967" lon="15.61505483">
        <time>2026-03-04T12:16:45Z</time>
        <course>0.00</course>
        <speed>0.920</speed>
      </trkpt>
      <trkpt lat="48.20545233" lon="15.61504350">
        <time>2026-03-04T12:16:46Z</time>
        <course>0.00</course>
        <speed>0.836</speed>
      </trkpt>
      <trkpt lat="48.20545233" lon="15.61504350">
        <time>2026-03-04T12:16:46Z</time>
        <course>0.00</course>
        <speed>0.836</speed>
      </trkpt>
      <trkpt lat="48.20544617" lon="15.61503567">
        <time>2026-03-04T12:16:47Z</time>
        <course>0.00</course>
        <speed>0.466</speed>
      </trkpt>
      <trkpt lat="48.20544617" lon="15.61503567">
        <time>2026-03-04T12:16:47Z</time>
        <course>0.00</course>
        <speed>0.466</speed>
      </trkpt>
      <trkpt lat="48.20543767" lon="15.61502283">
        <time>2026-03-04T12:16:48Z</time>
        <course>0.00</course>
        <speed>0.324</speed>
      </trkpt>
      <trkpt lat="48.20543767" lon="15.61502283">
        <time>2026-03-04T12:16:48Z</time>
        <course>0.00</course>
        <speed>0.324</speed>
      </trkpt>
      <trkpt lat="48.20542767" lon="15.61500683">
        <time>2026-03-04T12:16:49Z</time>
        <course>0.00</course>
        <speed>0.651</speed>
      </trkpt>
      <trkpt lat="48.20542767" lon="15.61500683">
        <time>2026-03-04T12:16:49Z</time>
        <course>0.00</course>
        <speed>0.651</speed>
      </trkpt>
      <trkpt lat="48.20542583" lon="15.61500167">
        <time>2026-03-04T12:16:50Z</time>
        <course>0.00</course>
        <speed>0.363</speed>
      </trkpt>
      <trkpt lat="48.20542583" lon="15.61500167">
        <time>2026-03-04T12:16:50Z</time>
        <course>0.00</course>
        <speed>0.363</speed>
      </trkpt>
      <trkpt lat="48.20540700" lon="15.61497850">
        <time>2026-03-04T12:16:54Z</time>
        <course>0.00</course>
        <speed>0.236</speed>
      </trkpt>
      <trkpt lat="48.20540700" lon="15.61497850">
        <time>2026-03-04T12:16:54Z</time>
        <course>0.00</course>
        <speed>0.236</speed>
      </trkpt>
      <trkpt lat="48.20540667" lon="15.61498367">
        <time>2026-03-04T12:16:55Z</time>
        <course>0.00</course>
        <speed>0.145</speed>
      </trkpt>
      <trkpt lat="48.20540667" lon="15.61498367">
        <time>2026-03-04T12:16:55Z</time>
        <course>0.00</course>
        <speed>0.145</speed>
      </trkpt>
      <trkpt lat="48.20540783" lon="15.61498933">
        <time>2026-03-04T12:16:56Z</time>
        <course>0.00</course>
        <speed>0.291</speed>
      </trkpt>
      <trkpt lat="48.20540783" lon="15.61498933">
        <time>2026-03-04T12:16:56Z</time>
        <course>0.00</course>
        <speed>0.291</speed>
      </trkpt>
      <trkpt lat="48.20541133" lon="15.61499483">
        <time>2026-03-04T12:16:57Z</time>
        <course>0.00</course>
        <speed>0.424</speed>
      </trkpt>
      <trkpt lat="48.20541133" lon="15.61499483">
        <time>2026-03-04T12:16:57Z</time>
        <course>0.00</course>
        <speed>0.424</speed>
      </trkpt>
      <trkpt lat="48.20543183" lon="15.61500967">
        <time>2026-03-04T12:17:00Z</time>
        <course>0.00</course>
        <speed>0.455</speed>
      </trkpt>
      <trkpt lat="48.20543183" lon="15.61500967">
        <time>2026-03-04T12:17:00Z</time>
        <course>0.00</course>
        <speed>0.455</speed>
      </trkpt>
      <trkpt lat="48.20543967" lon="15.61501333">
        <time>2026-03-04T12:17:02Z</time>
        <course>0.00</course>
        <speed>0.455</speed>
      </trkpt>
      <trkpt lat="48.20543967" lon="15.61501333">
        <time>2026-03-04T12:17:02Z</time>
        <course>0.00</course>
        <speed>0.455</speed>
      </trkpt>
      <trkpt lat="48.20543067" lon="15.61482733">
        <time>2026-03-04T12:17:09Z</time>
        <course>0.00</course>
        <speed>0.870</speed>
      </trkpt>
      <trkpt lat="48.20543067" lon="15.61482733">
        <time>2026-03-04T12:17:09Z</time>
        <course>0.00</course>
        <speed>0.870</speed>
      </trkpt>
      <trkpt lat="48.20543167" lon="15.61483183">
        <time>2026-03-04T12:17:10Z</time>
        <course>0.00</course>
        <speed>0.435</speed>
      </trkpt>
      <trkpt lat="48.20543167" lon="15.61483183">
        <time>2026-03-04T12:17:10Z</time>
        <course>0.00</course>
        <speed>0.435</speed>
      </trkpt>
      <trkpt lat="48.20542267" lon="15.61481450">
        <time>2026-03-04T12:17:11Z</time>
        <course>0.00</course>
        <speed>0.634</speed>
      </trkpt>
      <trkpt lat="48.20542267" lon="15.61481450">
        <time>2026-03-04T12:17:11Z</time>
        <course>0.00</course>
        <speed>0.634</speed>
      </trkpt>
      <trkpt lat="48.20535733" lon="15.61474317">
        <time>2026-03-04T12:17:15Z</time>
        <course>201.58</course>
        <speed>0.742</speed>
      </trkpt>
      <trkpt lat="48.20535733" lon="15.61474317">
        <time>2026-03-04T12:17:15Z</time>
        <course>201.58</course>
        <speed>0.742</speed>
      </trkpt>
      <trkpt lat="48.20534217" lon="15.61473483">
        <time>2026-03-04T12:17:16Z</time>
        <course>0.00</course>
        <speed>0.789</speed>
      </trkpt>
      <trkpt lat="48.20534217" lon="15.61473483">
        <time>2026-03-04T12:17:16Z</time>
        <course>0.00</course>
        <speed>0.789</speed>
      </trkpt>
      <trkpt lat="48.20533050" lon="15.61472967">
        <time>2026-03-04T12:17:17Z</time>
        <course>0.00</course>
        <speed>0.795</speed>
      </trkpt>
      <trkpt lat="48.20533050" lon="15.61472967">
        <time>2026-03-04T12:17:17Z</time>
        <course>0.00</course>
        <speed>0.795</speed>
      </trkpt>
      <trkpt lat="48.20530217" lon="15.61472733">
        <time>2026-03-04T12:17:18Z</time>
        <course>0.00</course>
        <speed>1.131</speed>
      </trkpt>
      <trkpt lat="48.20530217" lon="15.61472733">
        <time>2026-03-04T12:17:18Z</time>
        <course>0.00</course>
        <speed>1.131</speed>
      </trkpt>
      <trkpt lat="48.20528933" lon="15.61473050">
        <time>2026-03-04T12:17:19Z</time>
        <course>0.00</course>
        <speed>1.150</speed>
      </trkpt>
      <trkpt lat="48.20528933" lon="15.61473050">
        <time>2026-03-04T12:17:19Z</time>
        <course>0.00</course>
        <speed>1.150</speed>
      </trkpt>
      <trkpt lat="48.20526950" lon="15.61472567">
        <time>2026-03-04T12:17:20Z</time>
        <course>0.00</course>
        <speed>1.233</speed>
      </trkpt>
      <trkpt lat="48.20526950" lon="15.61472567">
        <time>2026-03-04T12:17:20Z</time>
        <course>0.00</course>
        <speed>1.233</speed>
      </trkpt>
      <trkpt lat="48.20523000" lon="15.61472483">
        <time>2026-03-04T12:17:25Z</time>
        <course>0.00</course>
        <speed>0.804</speed>
      </trkpt>
      <trkpt lat="48.20523000" lon="15.61472483">
        <time>2026-03-04T12:17:25Z</time>
        <course>0.00</course>
        <speed>0.804</speed>
      </trkpt>
      <trkpt lat="48.20521617" lon="15.61472483">
        <time>2026-03-04T12:17:26Z</time>
        <course>0.00</course>
        <speed>0.876</speed>
      </trkpt>
      <trkpt lat="48.20521617" lon="15.61472483">
        <time>2026-03-04T12:17:26Z</time>
        <course>0.00</course>
        <speed>0.876</speed>
      </trkpt>
      <trkpt lat="48.20520600" lon="15.61472567">
        <time>2026-03-04T12:17:27Z</time>
        <course>0.00</course>
        <speed>0.852</speed>
      </trkpt>
      <trkpt lat="48.20520600" lon="15.61472567">
        <time>2026-03-04T12:17:27Z</time>
        <course>0.00</course>
        <speed>0.852</speed>
      </trkpt>
      <trkpt lat="48.20520217" lon="15.61472233">
        <time>2026-03-04T12:17:28Z</time>
        <course>0.00</course>
        <speed>0.760</speed>
      </trkpt>
      <trkpt lat="48.20520217" lon="15.61472233">
        <time>2026-03-04T12:17:28Z</time>
        <course>0.00</course>
        <speed>0.760</speed>
      </trkpt>
      <trkpt lat="48.20519567" lon="15.61471967">
        <time>2026-03-04T12:17:29Z</time>
        <course>0.00</course>
        <speed>0.778</speed>
      </trkpt>
      <trkpt lat="48.20519567" lon="15.61471967">
        <time>2026-03-04T12:17:29Z</time>
        <course>0.00</course>
        <speed>0.778</speed>
      </trkpt>
      <trkpt lat="48.20519467" lon="15.61472683">
        <time>2026-03-04T12:17:30Z</time>
        <course>0.00</course>
        <speed>0.793</speed>
      </trkpt>
      <trkpt lat="48.20519467" lon="15.61472683">
        <time>2026-03-04T12:17:30Z</time>
        <course>0.00</course>
        <speed>0.793</speed>
      </trkpt>
      <trkpt lat="48.20518583" lon="15.61473200">
        <time>2026-03-04T12:17:31Z</time>
        <course>0.00</course>
        <speed>0.845</speed>
      </trkpt>
      <trkpt lat="48.20518583" lon="15.61473200">
        <time>2026-03-04T12:17:31Z</time>
        <course>0.00</course>
        <speed>0.845</speed>
      </trkpt>
      <trkpt lat="48.20517617" lon="15.61472767">
        <time>2026-03-04T12:17:32Z</time>
        <course>0.00</course>
        <speed>0.899</speed>
      </trkpt>
      <trkpt lat="48.20517617" lon="15.61472767">
        <time>2026-03-04T12:17:32Z</time>
        <course>0.00</course>
        <speed>0.899</speed>
      </trkpt>
      <trkpt lat="48.20516033" lon="15.61472200">
        <time>2026-03-04T12:17:33Z</time>
        <course>0.00</course>
        <speed>1.040</speed>
      </trkpt>
      <trkpt lat="48.20516033" lon="15.61472200">
        <time>2026-03-04T12:17:33Z</time>
        <course>0.00</course>
        <speed>1.040</speed>
      </trkpt>
      <trkpt lat="48.20515700" lon="15.61471067">
        <time>2026-03-04T12:17:34Z</time>
        <course>0.00</course>
        <speed>0.933</speed>
      </trkpt>
      <trkpt lat="48.20515700" lon="15.61471067">
        <time>2026-03-04T12:17:34Z</time>
        <course>0.00</course>
        <speed>0.933</speed>
      </trkpt>
      <trkpt lat="48.20517000" lon="15.61470367">
        <time>2026-03-04T12:17:35Z</time>
        <course>0.00</course>
        <speed>0.517</speed>
      </trkpt>
      <trkpt lat="48.20517000" lon="15.61470367">
        <time>2026-03-04T12:17:35Z</time>
        <course>0.00</course>
        <speed>0.517</speed>
      </trkpt>
      <trkpt lat="48.20516717" lon="15.61469117">
        <time>2026-03-04T12:17:36Z</time>
        <course>0.00</course>
        <speed>0.544</speed>
      </trkpt>
      <trkpt lat="48.20516717" lon="15.61469117">
        <time>2026-03-04T12:17:36Z</time>
        <course>0.00</course>
        <speed>0.544</speed>
      </trkpt>
      <trkpt lat="48.20515833" lon="15.61467600">
        <time>2026-03-04T12:17:37Z</time>
        <course>0.00</course>
        <speed>0.768</speed>
      </trkpt>
      <trkpt lat="48.20515833" lon="15.61467600">
        <time>2026-03-04T12:17:37Z</time>
        <course>0.00</course>
        <speed>0.768</speed>
      </trkpt>
      <trkpt lat="48.20514500" lon="15.61466450">
        <time>2026-03-04T12:17:38Z</time>
        <course>0.00</course>
        <speed>0.958</speed>
      </trkpt>
      <trkpt lat="48.20514500" lon="15.61466450">
        <time>2026-03-04T12:17:38Z</time>
        <course>0.00</course>
        <speed>0.958</speed>
      </trkpt>
      <trkpt lat="48.20513350" lon="15.61465000">
        <time>2026-03-04T12:17:39Z</time>
        <course>0.00</course>
        <speed>1.020</speed>
      </trkpt>
      <trkpt lat="48.20513350" lon="15.61465000">
        <time>2026-03-04T12:17:39Z</time>
        <course>0.00</course>
        <speed>1.020</speed>
      </trkpt>
      <trkpt lat="48.20513250" lon="15.61464067">
        <time>2026-03-04T12:17:40Z</time>
        <course>0.00</course>
        <speed>0.867</speed>
      </trkpt>
      <trkpt lat="48.20513250" lon="15.61464067">
        <time>2026-03-04T12:17:40Z</time>
        <course>0.00</course>
        <speed>0.867</speed>
      </trkpt>
      <trkpt lat="48.20512883" lon="15.61463750">
        <time>2026-03-04T12:17:41Z</time>
        <course>0.00</course>
        <speed>0.706</speed>
      </trkpt>
      <trkpt lat="48.20512883" lon="15.61463750">
        <time>2026-03-04T12:17:41Z</time>
        <course>0.00</course>
        <speed>0.706</speed>
      </trkpt>
      <trkpt lat="48.20512050" lon="15.61463150">
        <time>2026-03-04T12:17:42Z</time>
        <course>0.00</course>
        <speed>0.753</speed>
      </trkpt>
      <trkpt lat="48.20512050" lon="15.61463150">
        <time>2026-03-04T12:17:42Z</time>
        <course>0.00</course>
        <speed>0.753</speed>
      </trkpt>
      <trkpt lat="48.20510400" lon="15.61462250">
        <time>2026-03-04T12:17:43Z</time>
        <course>0.00</course>
        <speed>1.008</speed>
      </trkpt>
      <trkpt lat="48.20510400" lon="15.61462250">
        <time>2026-03-04T12:17:43Z</time>
        <course>0.00</course>
        <speed>1.008</speed>
      </trkpt>
      <trkpt lat="48.20509750" lon="15.61461900">
        <time>2026-03-04T12:17:44Z</time>
        <course>0.00</course>
        <speed>0.925</speed>
      </trkpt>
      <trkpt lat="48.20509750" lon="15.61461900">
        <time>2026-03-04T12:17:44Z</time>
        <course>0.00</course>
        <speed>0.925</speed>
      </trkpt>
      <trkpt lat="48.20508183" lon="15.61461250">
        <time>2026-03-04T12:17:45Z</time>
        <course>0.00</course>
        <speed>1.138</speed>
      </trkpt>
      <trkpt lat="48.20508183" lon="15.61461250">
        <time>2026-03-04T12:17:45Z</time>
        <course>0.00</course>
        <speed>1.138</speed>
      </trkpt>
      <trkpt lat="48.20507233" lon="15.61460500">
        <time>2026-03-04T12:17:46Z</time>
        <course>0.00</course>
        <speed>1.127</speed>
      </trkpt>
      <trkpt lat="48.20507233" lon="15.61460500">
        <time>2026-03-04T12:17:46Z</time>
        <course>0.00</course>
        <speed>1.127</speed>
      </trkpt>
      <trkpt lat="48.20504967" lon="15.61459700">
        <time>2026-03-04T12:17:47Z</time>
        <course>0.00</course>
        <speed>1.489</speed>
      </trkpt>
      <trkpt lat="48.20504967" lon="15.61459700">
        <time>2026-03-04T12:17:47Z</time>
        <course>0.00</course>
        <speed>1.489</speed>
      </trkpt>
      <trkpt lat="48.20503367" lon="15.61459017">
        <time>2026-03-04T12:17:48Z</time>
        <course>193.47</course>
        <speed>1.568</speed>
      </trkpt>
      <trkpt lat="48.20503367" lon="15.61459017">
        <time>2026-03-04T12:17:48Z</time>
        <course>193.47</course>
        <speed>1.568</speed>
      </trkpt>
      <trkpt lat="48.20501817" lon="15.61457767">
        <time>2026-03-04T12:17:49Z</time>
        <course>192.88</course>
        <speed>1.670</speed>
      </trkpt>
      <trkpt lat="48.20501817" lon="15.61457767">
        <time>2026-03-04T12:17:49Z</time>
        <course>192.88</course>
        <speed>1.670</speed>
      </trkpt>
      <trkpt lat="48.20500817" lon="15.61456900">
        <time>2026-03-04T12:17:50Z</time>
        <course>193.38</course>
        <speed>1.553</speed>
      </trkpt>
      <trkpt lat="48.20500817" lon="15.61456900">
        <time>2026-03-04T12:17:50Z</time>
        <course>193.38</course>
        <speed>1.553</speed>
      </trkpt>
      <trkpt lat="48.20499617" lon="15.61456050">
        <time>2026-03-04T12:17:51Z</time>
        <course>195.22</course>
        <speed>1.520</speed>
      </trkpt>
      <trkpt lat="48.20499617" lon="15.61456050">
        <time>2026-03-04T12:17:51Z</time>
        <course>195.22</course>
        <speed>1.520</speed>
      </trkpt>
      <trkpt lat="48.20499217" lon="15.61455467">
        <time>2026-03-04T12:17:52Z</time>
        <course>197.26</course>
        <speed>1.318</speed>
      </trkpt>
      <trkpt lat="48.20499217" lon="15.61455467">
        <time>2026-03-04T12:17:52Z</time>
        <course>197.26</course>
        <speed>1.318</speed>
      </trkpt>
      <trkpt lat="48.20498683" lon="15.61452417">
        <time>2026-03-04T12:17:53Z</time>
        <course>0.00</course>
        <speed>1.468</speed>
      </trkpt>
      <trkpt lat="48.20498683" lon="15.61452417">
        <time>2026-03-04T12:17:53Z</time>
        <course>0.00</course>
        <speed>1.468</speed>
      </trkpt>
      <trkpt lat="48.20498733" lon="15.61451667">
        <time>2026-03-04T12:17:54Z</time>
        <course>0.00</course>
        <speed>1.214</speed>
      </trkpt>
      <trkpt lat="48.20498733" lon="15.61451667">
        <time>2026-03-04T12:17:54Z</time>
        <course>0.00</course>
        <speed>1.214</speed>
      </trkpt>
      <trkpt lat="48.20498433" lon="15.61450950">
        <time>2026-03-04T12:17:55Z</time>
        <course>0.00</course>
        <speed>1.091</speed>
      </trkpt>
      <trkpt lat="48.20498433" lon="15.61450950">
        <time>2026-03-04T12:17:55Z</time>
        <course>0.00</course>
        <speed>1.091</speed>
      </trkpt>
      <trkpt lat="48.20496933" lon="15.61450533">
        <time>2026-03-04T12:17:56Z</time>
        <course>0.00</course>
        <speed>1.061</speed>
      </trkpt>
      <trkpt lat="48.20496933" lon="15.61450533">
        <time>2026-03-04T12:17:56Z</time>
        <course>0.00</course>
        <speed>1.061</speed>
      </trkpt>
      <trkpt lat="48.20496050" lon="15.61451767">
        <time>2026-03-04T12:17:57Z</time>
        <course>0.00</course>
        <speed>0.820</speed>
      </trkpt>
      <trkpt lat="48.20496050" lon="15.61451767">
        <time>2026-03-04T12:17:57Z</time>
        <course>0.00</course>
        <speed>0.820</speed>
      </trkpt>
      <trkpt lat="48.20493617" lon="15.61452233">
        <time>2026-03-04T12:17:58Z</time>
        <course>187.24</course>
        <speed>1.328</speed>
      </trkpt>
      <trkpt lat="48.20493617" lon="15.61452233">
        <time>2026-03-04T12:17:58Z</time>
        <course>187.24</course>
        <speed>1.328</speed>
      </trkpt>
      <trkpt lat="48.20492400" lon="15.61453167">
        <time>2026-03-04T12:17:59Z</time>
        <course>0.00</course>
        <speed>1.399</speed>
      </trkpt>
      <trkpt lat="48.20492400" lon="15.61453167">
        <time>2026-03-04T12:17:59Z</time>
        <course>0.00</course>
        <speed>1.399</speed>
      </trkpt>
      <trkpt lat="48.20491150" lon="15.61453400">
        <time>2026-03-04T12:18:00Z</time>
        <course>0.00</course>
        <speed>1.404</speed>
      </trkpt>
      <trkpt lat="48.20491150" lon="15.61453400">
        <time>2026-03-04T12:18:00Z</time>
        <course>0.00</course>
        <speed>1.404</speed>
      </trkpt>
      <trkpt lat="48.20490167" lon="15.61454050">
        <time>2026-03-04T12:18:01Z</time>
        <course>0.00</course>
        <speed>1.343</speed>
      </trkpt>
      <trkpt lat="48.20490167" lon="15.61454050">
        <time>2026-03-04T12:18:01Z</time>
        <course>0.00</course>
        <speed>1.343</speed>
      </trkpt>
      <trkpt lat="48.20489550" lon="15.61453800">
        <time>2026-03-04T12:18:02Z</time>
        <course>0.00</course>
        <speed>1.146</speed>
      </trkpt>
      <trkpt lat="48.20489550" lon="15.61453800">
        <time>2026-03-04T12:18:02Z</time>
        <course>0.00</course>
        <speed>1.146</speed>
      </trkpt>
      <trkpt lat="48.20488517" lon="15.61453917">
        <time>2026-03-04T12:18:03Z</time>
        <course>0.00</course>
        <speed>1.185</speed>
      </trkpt>
      <trkpt lat="48.20488517" lon="15.61453917">
        <time>2026-03-04T12:18:03Z</time>
        <course>0.00</course>
        <speed>1.185</speed>
      </trkpt>
      <trkpt lat="48.20487917" lon="15.61453683">
        <time>2026-03-04T12:18:04Z</time>
        <course>0.00</course>
        <speed>1.076</speed>
      </trkpt>
      <trkpt lat="48.20487917" lon="15.61453683">
        <time>2026-03-04T12:18:04Z</time>
        <course>0.00</course>
        <speed>1.076</speed>
      </trkpt>
      <trkpt lat="48.20488100" lon="15.61453717">
        <time>2026-03-04T12:18:05Z</time>
        <course>0.00</course>
        <speed>0.747</speed>
      </trkpt>
      <trkpt lat="48.20488100" lon="15.61453717">
        <time>2026-03-04T12:18:05Z</time>
        <course>0.00</course>
        <speed>0.747</speed>
      </trkpt>
      <trkpt lat="48.20486800" lon="15.61453000">
        <time>2026-03-04T12:18:06Z</time>
        <course>0.00</course>
        <speed>0.948</speed>
      </trkpt>
      <trkpt lat="48.20486800" lon="15.61453000">
        <time>2026-03-04T12:18:06Z</time>
        <course>0.00</course>
        <speed>0.948</speed>
      </trkpt>
      <trkpt lat="48.20485183" lon="15.61452267">
        <time>2026-03-04T12:18:07Z</time>
        <course>193.44</course>
        <speed>1.304</speed>
      </trkpt>
      <trkpt lat="48.20485183" lon="15.61452267">
        <time>2026-03-04T12:18:07Z</time>
        <course>193.44</course>
        <speed>1.304</speed>
      </trkpt>
      <trkpt lat="48.20484000" lon="15.61451350">
        <time>2026-03-04T12:18:08Z</time>
        <course>193.27</course>
        <speed>1.218</speed>
      </trkpt>
      <trkpt lat="48.20484000" lon="15.61451350">
        <time>2026-03-04T12:18:08Z</time>
        <course>193.27</course>
        <speed>1.218</speed>
      </trkpt>
      <trkpt lat="48.20482350" lon="15.61450167">
        <time>2026-03-04T12:18:09Z</time>
        <course>193.56</course>
        <speed>1.360</speed>
      </trkpt>
      <trkpt lat="48.20482350" lon="15.61450167">
        <time>2026-03-04T12:18:09Z</time>
        <course>193.56</course>
        <speed>1.360</speed>
      </trkpt>
      <trkpt lat="48.20481367" lon="15.61449000">
        <time>2026-03-04T12:18:10Z</time>
        <course>195.71</course>
        <speed>1.260</speed>
      </trkpt>
      <trkpt lat="48.20481367" lon="15.61449000">
        <time>2026-03-04T12:18:10Z</time>
        <course>195.71</course>
        <speed>1.260</speed>
      </trkpt>
      <trkpt lat="48.20480717" lon="15.61448467">
        <time>2026-03-04T12:18:11Z</time>
        <course>0.00</course>
        <speed>1.117</speed>
      </trkpt>
      <trkpt lat="48.20480717" lon="15.61448467">
        <time>2026-03-04T12:18:11Z</time>
        <course>0.00</course>
        <speed>1.117</speed>
      </trkpt>
      <trkpt lat="48.20479900" lon="15.61447967">
        <time>2026-03-04T12:18:12Z</time>
        <course>0.00</course>
        <speed>1.045</speed>
      </trkpt>
      <trkpt lat="48.20479900" lon="15.61447967">
        <time>2026-03-04T12:18:12Z</time>
        <course>0.00</course>
        <speed>1.045</speed>
      </trkpt>
      <trkpt lat="48.20479100" lon="15.61446833">
        <time>2026-03-04T12:18:13Z</time>
        <course>0.00</course>
        <speed>1.096</speed>
      </trkpt>
      <trkpt lat="48.20479100" lon="15.61446833">
        <time>2026-03-04T12:18:13Z</time>
        <course>0.00</course>
        <speed>1.096</speed>
      </trkpt>
      <trkpt lat="48.20478567" lon="15.61446033">
        <time>2026-03-04T12:18:14Z</time>
        <course>0.00</course>
        <speed>0.990</speed>
      </trkpt>
      <trkpt lat="48.20478567" lon="15.61446033">
        <time>2026-03-04T12:18:14Z</time>
        <course>0.00</course>
        <speed>0.990</speed>
      </trkpt>
      <trkpt lat="48.20478217" lon="15.61445267">
        <time>2026-03-04T12:18:15Z</time>
        <course>0.00</course>
        <speed>0.856</speed>
      </trkpt>
      <trkpt lat="48.20478217" lon="15.61445267">
        <time>2026-03-04T12:18:15Z</time>
        <course>0.00</course>
        <speed>0.856</speed>
      </trkpt>
      <trkpt lat="48.20477550" lon="15.61444000">
        <time>2026-03-04T12:18:16Z</time>
        <course>0.00</course>
        <speed>0.914</speed>
      </trkpt>
      <trkpt lat="48.20477550" lon="15.61444000">
        <time>2026-03-04T12:18:16Z</time>
        <course>0.00</course>
        <speed>0.914</speed>
      </trkpt>
      <trkpt lat="48.20475800" lon="15.61443367">
        <time>2026-03-04T12:18:17Z</time>
        <course>199.33</course>
        <speed>1.172</speed>
      </trkpt>
      <trkpt lat="48.20475800" lon="15.61443367">
        <time>2026-03-04T12:18:17Z</time>
        <course>199.33</course>
        <speed>1.172</speed>
      </trkpt>
      <trkpt lat="48.20474617" lon="15.61442467">
        <time>2026-03-04T12:18:18Z</time>
        <course>201.66</course>
        <speed>1.258</speed>
      </trkpt>
      <trkpt lat="48.20474617" lon="15.61442467">
        <time>2026-03-04T12:18:18Z</time>
        <course>201.66</course>
        <speed>1.258</speed>
      </trkpt>
      <trkpt lat="48.20473883" lon="15.61442433">
        <time>2026-03-04T12:18:19Z</time>
        <course>199.06</course>
        <speed>1.137</speed>
      </trkpt>
      <trkpt lat="48.20473883" lon="15.61442433">
        <time>2026-03-04T12:18:19Z</time>
        <course>199.06</course>
        <speed>1.137</speed>
      </trkpt>
      <trkpt lat="48.20473333" lon="15.61442483">
        <time>2026-03-04T12:18:20Z</time>
        <course>0.00</course>
        <speed>0.969</speed>
      </trkpt>
      <trkpt lat="48.20473333" lon="15.61442483">
        <time>2026-03-04T12:18:20Z</time>
        <course>0.00</course>
        <speed>0.969</speed>
      </trkpt>
      <trkpt lat="48.20472933" lon="15.61441117">
        <time>2026-03-04T12:18:21Z</time>
        <course>0.00</course>
        <speed>0.961</speed>
      </trkpt>
      <trkpt lat="48.20472933" lon="15.61441117">
        <time>2026-03-04T12:18:21Z</time>
        <course>0.00</course>
        <speed>0.961</speed>
      </trkpt>
      <trkpt lat="48.20472483" lon="15.61440433">
        <time>2026-03-04T12:18:22Z</time>
        <course>0.00</course>
        <speed>0.854</speed>
      </trkpt>
      <trkpt lat="48.20472483" lon="15.61440433">
        <time>2026-03-04T12:18:22Z</time>
        <course>0.00</course>
        <speed>0.854</speed>
      </trkpt>
      <trkpt lat="48.20471750" lon="15.61438733">
        <time>2026-03-04T12:18:23Z</time>
        <course>0.00</course>
        <speed>1.091</speed>
      </trkpt>
      <trkpt lat="48.20471750" lon="15.61438733">
        <time>2026-03-04T12:18:23Z</time>
        <course>0.00</course>
        <speed>1.091</speed>
      </trkpt>
      <trkpt lat="48.20471750" lon="15.61436817">
        <time>2026-03-04T12:18:24Z</time>
        <course>0.00</course>
        <speed>1.197</speed>
      </trkpt>
      <trkpt lat="48.20471750" lon="15.61436817">
        <time>2026-03-04T12:18:24Z</time>
        <course>0.00</course>
        <speed>1.197</speed>
      </trkpt>
      <trkpt lat="48.20470450" lon="15.61435683">
        <time>2026-03-04T12:18:25Z</time>
        <course>0.00</course>
        <speed>1.108</speed>
      </trkpt>
      <trkpt lat="48.20470450" lon="15.61435683">
        <time>2026-03-04T12:18:25Z</time>
        <course>0.00</course>
        <speed>1.108</speed>
      </trkpt>
      <trkpt lat="48.20469450" lon="15.61434733">
        <time>2026-03-04T12:18:26Z</time>
        <course>0.00</course>
        <speed>1.041</speed>
      </trkpt>
      <trkpt lat="48.20469450" lon="15.61434733">
        <time>2026-03-04T12:18:26Z</time>
        <course>0.00</course>
        <speed>1.041</speed>
      </trkpt>
      <trkpt lat="48.20468667" lon="15.61433983">
        <time>2026-03-04T12:18:27Z</time>
        <course>0.00</course>
        <speed>0.968</speed>
      </trkpt>
      <trkpt lat="48.20468667" lon="15.61433983">
        <time>2026-03-04T12:18:27Z</time>
        <course>0.00</course>
        <speed>0.968</speed>
      </trkpt>
      <trkpt lat="48.20467567" lon="15.61433217">
        <time>2026-03-04T12:18:28Z</time>
        <course>0.00</course>
        <speed>1.035</speed>
      </trkpt>
      <trkpt lat="48.20467567" lon="15.61433217">
        <time>2026-03-04T12:18:28Z</time>
        <course>0.00</course>
        <speed>1.035</speed>
      </trkpt>
      <trkpt lat="48.20467033" lon="15.61432167">
        <time>2026-03-04T12:18:29Z</time>
        <course>0.00</course>
        <speed>1.003</speed>
      </trkpt>
      <trkpt lat="48.20467033" lon="15.61432167">
        <time>2026-03-04T12:18:29Z</time>
        <course>0.00</course>
        <speed>1.003</speed>
      </trkpt>
      <trkpt lat="48.20465983" lon="15.61431417">
        <time>2026-03-04T12:18:30Z</time>
        <course>0.00</course>
        <speed>1.029</speed>
      </trkpt>
      <trkpt lat="48.20465983" lon="15.61431417">
        <time>2026-03-04T12:18:30Z</time>
        <course>0.00</course>
        <speed>1.029</speed>
      </trkpt>
      <trkpt lat="48.20464733" lon="15.61430317">
        <time>2026-03-04T12:18:31Z</time>
        <course>0.00</course>
        <speed>1.161</speed>
      </trkpt>
      <trkpt lat="48.20464733" lon="15.61430317">
        <time>2026-03-04T12:18:31Z</time>
        <course>0.00</course>
        <speed>1.161</speed>
      </trkpt>
      <trkpt lat="48.20464233" lon="15.61429333">
        <time>2026-03-04T12:18:32Z</time>
        <course>0.00</course>
        <speed>1.074</speed>
      </trkpt>
      <trkpt lat="48.20464233" lon="15.61429333">
        <time>2026-03-04T12:18:32Z</time>
        <course>0.00</course>
        <speed>1.074</speed>
      </trkpt>
      <trkpt lat="48.20463183" lon="15.61428800">
        <time>2026-03-04T12:18:33Z</time>
        <course>0.00</course>
        <speed>1.102</speed>
      </trkpt>
      <trkpt lat="48.20463183" lon="15.61428800">
        <time>2026-03-04T12:18:33Z</time>
        <course>0.00</course>
        <speed>1.102</speed>
      </trkpt>
      <trkpt lat="48.20461933" lon="15.61427550">
        <time>2026-03-04T12:18:34Z</time>
        <course>0.00</course>
        <speed>1.236</speed>
      </trkpt>
      <trkpt lat="48.20461933" lon="15.61427550">
        <time>2026-03-04T12:18:34Z</time>
        <course>0.00</course>
        <speed>1.236</speed>
      </trkpt>
      <trkpt lat="48.20461067" lon="15.61426750">
        <time>2026-03-04T12:18:35Z</time>
        <course>0.00</course>
        <speed>1.222</speed>
      </trkpt>
      <trkpt lat="48.20461067" lon="15.61426750">
        <time>2026-03-04T12:18:35Z</time>
        <course>0.00</course>
        <speed>1.222</speed>
      </trkpt>
    </trkseg>
  </trk>
</gpx>
