<?xml version="1.0" encoding="UTF-8"?>
<gpx version="1.1" creator="bikecomputer" xmlns="http://www.topografix.com/GPX/1/1">
  <trk>
    <name>Bike Activity</name>
    <trkseg>
      <trkpt lat="48.20749650" lon="15.61736800">
        <time>2026-03-04T12:37:28Z</time>
        <course>0.00</course>
        <speed>0.607</speed>
      </trkpt>
      <trkpt lat="48.20749650" lon="15.61736800">
        <time>2026-03-04T12:37:28Z</time>
        <course>0.00</course>
        <speed>0.607</speed>
      </trkpt>
      <trkpt lat="48.20748283" lon="15.61737083">
        <time>2026-03-04T12:37:29Z</time>
        <course>0.00</course>
        <speed>0.614</speed>
      </trkpt>
      <trkpt lat="48.20748283" lon="15.61737083">
        <time>2026-03-04T12:37:29Z</time>
        <course>0.00</course>
        <speed>0.614</speed>
      </trkpt>
      <trkpt lat="48.20746567" lon="15.61737783">
        <time>2026-03-04T12:37:30Z</time>
        <course>0.00</course>
        <speed>0.913</speed>
      </trkpt>
      <trkpt lat="48.20746567" lon="15.61737783">
        <time>2026-03-04T12:37:30Z</time>
        <course>0.00</course>
        <speed>0.913</speed>
      </trkpt>
      <trkpt lat="48.20744533" lon="15.61740250">
        <time>2026-03-04T12:37:31Z</time>
        <course>0.00</course>
        <speed>1.135</speed>
      </trkpt>
      <trkpt lat="48.20744533" lon="15.61740250">
        <time>2026-03-04T12:37:31Z</time>
        <course>0.00</course>
        <speed>1.135</speed>
      </trkpt>
      <trkpt lat="48.20743783" lon="15.61739733">
        <time>2026-03-04T12:37:32Z</time>
        <course>0.00</course>
        <speed>1.078</speed>
      </trkpt>
      <trkpt lat="48.20743783" lon="15.61739733">
        <time>2026-03-04T12:37:32Z</time>
        <course>0.00</course>
        <speed>1.078</speed>
      </trkpt>
      <trkpt lat="48.20742250" lon="15.61740883">
        <time>2026-03-04T12:37:33Z</time>
        <course>0.00</course>
        <speed>1.144</speed>
      </trkpt>
      <trkpt lat="48.20742250" lon="15.61740883">
        <time>2026-03-04T12:37:33Z</time>
        <course>0.00</course>
        <speed>1.144</speed>
      </trkpt>
      <trkpt lat="48.20739883" lon="15.61738417">
        <time>2026-03-04T12:37:34Z</time>
        <course>0.00</course>
        <speed>1.142</speed>
      </trkpt>
      <trkpt lat="48.20739883" lon="15.61738417">
        <time>2026-03-04T12:37:34Z</time>
        <course>0.00</course>
        <speed>1.142</speed>
      </trkpt>
      <trkpt lat="48.20737983" lon="15.61741533">
        <time>2026-03-04T12:37:35Z</time>
        <course>0.00</course>
        <speed>1.327</speed>
      </trkpt>
      <trkpt lat="48.20737983" lon="15.61741533">
        <time>2026-03-04T12:37:35Z</time>
        <course>0.00</course>
        <speed>1.327</speed>
      </trkpt>
      <trkpt lat="48.20736217" lon="15.61744800">
        <time>2026-03-04T12:37:36Z</time>
        <course>0.00</course>
        <speed>1.529</speed>
      </trkpt>
      <trkpt lat="48.20736217" lon="15.61744800">
        <time>2026-03-04T12:37:36Z</time>
        <course>0.00</course>
        <speed>1.529</speed>
      </trkpt>
      <trkpt lat="48.20720783" lon="15.61741700">
        <time>2026-03-04T12:37:37Z</time>
        <course>203.32</course>
        <speed>3.796</speed>
      </trkpt>
      <trkpt lat="48.20720783" lon="15.61741700">
        <time>2026-03-04T12:37:37Z</time>
        <course>203.32</course>
        <speed>3.796</speed>
      </trkpt>
      <trkpt lat="48.20732967" lon="15.61754767">
        <time>2026-03-04T12:37:40Z</time>
        <course>0.00</course>
        <speed>1.970</speed>
      </trkpt>
      <trkpt lat="48.20732967" lon="15.61754767">
        <time>2026-03-04T12:37:40Z</time>
        <course>0.00</course>
        <speed>1.970</speed>
      </trkpt>
      <trkpt lat="48.20733733" lon="15.61757717">
        <time>2026-03-04T12:37:41Z</time>
        <course>0.00</course>
        <speed>1.844</speed>
      </trkpt>
      <trkpt lat="48.20733733" lon="15.61757717">
        <time>2026-03-04T12:37:41Z</time>
        <course>0.00</course>
        <speed>1.844</speed>
      </trkpt>
      <trkpt lat="48.20733167" lon="15.61756683">
        <time>2026-03-04T12:37:42Z</time>
        <course>0.00</course>
        <speed>1.703</speed>
      </trkpt>
      <trkpt lat="48.20733167" lon="15.61756683">
        <time>2026-03-04T12:37:42Z</time>
        <course>0.00</course>
        <speed>1.703</speed>
      </trkpt>
      <trkpt lat="48.20736150" lon="15.61761883">
        <time>2026-03-04T12:37:43Z</time>
        <course>0.00</course>
        <speed>1.527</speed>
      </trkpt>
      <trkpt lat="48.20736150" lon="15.61761883">
        <time>2026-03-04T12:37:43Z</time>
        <course>0.00</course>
        <speed>1.527</speed>
      </trkpt>
      <trkpt lat="48.20736900" lon="15.61762367">
        <time>2026-03-04T12:37:44Z</time>
        <course>0.00</course>
        <speed>1.395</speed>
      </trkpt>
      <trkpt lat="48.20736900" lon="15.61762367">
        <time>2026-03-04T12:37:44Z</time>
        <course>0.00</course>
        <speed>1.395</speed>
      </trkpt>
      <trkpt lat="48.20738517" lon="15.61761983">
        <time>2026-03-04T12:37:45Z</time>
        <course>0.00</course>
        <speed>1.194</speed>
      </trkpt>
      <trkpt lat="48.20738517" lon="15.61761983">
        <time>2026-03-04T12:37:45Z</time>
        <course>0.00</course>
        <speed>1.194</speed>
      </trkpt>
      <trkpt lat="48.20737133" lon="15.61762767">
        <time>2026-03-04T12:37:47Z</time>
        <course>0.00</course>
        <speed>1.285</speed>
      </trkpt>
      <trkpt lat="48.20737133" lon="15.61762767">
        <time>2026-03-04T12:37:47Z</time>
        <course>0.00</course>
        <speed>1.285</speed>
      </trkpt>
      <trkpt lat="48.20746400" lon="15.61751517">
        <time>2026-03-04T12:37:48Z</time>
        <course>0.00</course>
        <speed>0.675</speed>
      </trkpt>
      <trkpt lat="48.20746400" lon="15.61751517">
        <time>2026-03-04T12:37:48Z</time>
        <course>0.00</course>
        <speed>0.675</speed>
      </trkpt>
      <trkpt lat="48.20755983" lon="15.61751667">
        <time>2026-03-04T12:37:49Z</time>
        <course>0.00</course>
        <speed>0.213</speed>
      </trkpt>
      <trkpt lat="48.20755983" lon="15.61751667">
        <time>2026-03-04T12:37:49Z</time>
        <course>0.00</course>
        <speed>0.213</speed>
      </trkpt>
      <trkpt lat="48.20759600" lon="15.61749200">
        <time>2026-03-04T12:37:50Z</time>
        <course>0.00</course>
        <speed>0.059</speed>
      </trkpt>
      <trkpt lat="48.20759600" lon="15.61749200">
        <time>2026-03-04T12:37:50Z</time>
        <course>0.00</course>
        <speed>0.059</speed>
      </trkpt>
      <trkpt lat="48.20762650" lon="15.61748317">
        <time>2026-03-04T12:37:51Z</time>
        <course>0.00</course>
        <speed>0.237</speed>
      </trkpt>
      <trkpt lat="48.20762650" lon="15.61748317">
        <time>2026-03-04T12:37:51Z</time>
        <course>0.00</course>
        <speed>0.237</speed>
      </trkpt>
      <trkpt lat="48.20765000" lon="15.61755650">
        <time>2026-03-04T12:37:52Z</time>
        <course>0.00</course>
        <speed>0.481</speed>
      </trkpt>
      <trkpt lat="48.20765000" lon="15.61755650">
        <time>2026-03-04T12:37:52Z</time>
        <course>0.00</course>
        <speed>0.481</speed>
      </trkpt>
      <trkpt lat="48.20766867" lon="15.61754567">
        <time>2026-03-04T12:37:53Z</time>
        <course>0.00</course>
        <speed>0.416</speed>
      </trkpt>
      <trkpt lat="48.20766867" lon="15.61754567">
        <time>2026-03-04T12:37:53Z</time>
        <course>0.00</course>
        <speed>0.416</speed>
      </trkpt>
      <trkpt lat="48.20768133" lon="15.61753900">
        <time>2026-03-04T12:37:54Z</time>
        <course>0.00</course>
        <speed>0.448</speed>
      </trkpt>
      <trkpt lat="48.20768133" lon="15.61753900">
        <time>2026-03-04T12:37:54Z</time>
        <course>0.00</course>
        <speed>0.448</speed>
      </trkpt>
      <trkpt lat="48.20770517" lon="15.61760950">
        <time>2026-03-04T12:37:55Z</time>
        <course>0.00</course>
        <speed>0.537</speed>
      </trkpt>
      <trkpt lat="48.20770517" lon="15.61760950">
        <time>2026-03-04T12:37:55Z</time>
        <course>0.00</course>
        <speed>0.537</speed>
      </trkpt>
      <trkpt lat="48.20773267" lon="15.61761583">
        <time>2026-03-04T12:37:56Z</time>
        <course>0.00</course>
        <speed>0.569</speed>
      </trkpt>
      <trkpt lat="48.20773267" lon="15.61761583">
        <time>2026-03-04T12:37:56Z</time>
        <course>0.00</course>
        <speed>0.569</speed>
      </trkpt>
      <trkpt lat="48.20775067" lon="15.61761917">
        <time>2026-03-04T12:37:57Z</time>
        <course>0.00</course>
        <speed>0.537</speed>
      </trkpt>
      <trkpt lat="48.20775067" lon="15.61761917">
        <time>2026-03-04T12:37:57Z</time>
        <course>0.00</course>
        <speed>0.537</speed>
      </trkpt>
      <trkpt lat="48.20775300" lon="15.61759750">
        <time>2026-03-04T12:37:58Z</time>
        <course>0.00</course>
        <speed>0.450</speed>
      </trkpt>
      <trkpt lat="48.20775300" lon="15.61759750">
        <time>2026-03-04T12:37:58Z</time>
        <course>0.00</course>
        <speed>0.450</speed>
      </trkpt>
      <trkpt lat="48.20775917" lon="15.61759700">
        <time>2026-03-04T12:37:59Z</time>
        <course>0.00</course>
        <speed>0.494</speed>
      </trkpt>
      <trkpt lat="48.20775917" lon="15.61759700">
        <time>2026-03-04T12:37:59Z</time>
        <course>0.00</course>
        <speed>0.494</speed>
      </trkpt>
      <trkpt lat="48.20776750" lon="15.61759883">
        <time>2026-03-04T12:38:00Z</time>
        <course>0.00</course>
        <speed>0.584</speed>
      </trkpt>
      <trkpt lat="48.20776750" lon="15.61759883">
        <time>2026-03-04T12:38:00Z</time>
        <course>0.00</course>
        <speed>0.584</speed>
      </trkpt>
      <trkpt lat="48.20785333" lon="15.61780017">
        <time>2026-03-04T12:38:01Z</time>
        <course>0.00</course>
        <speed>0.896</speed>
      </trkpt>
      <trkpt lat="48.20785333" lon="15.61780017">
        <time>2026-03-04T12:38:01Z</time>
        <course>0.00</course>
        <speed>0.896</speed>
      </trkpt>
      <trkpt lat="48.20789983" lon="15.61793167">
        <time>2026-03-04T12:38:02Z</time>
        <course>0.00</course>
        <speed>0.770</speed>
      </trkpt>
      <trkpt lat="48.20789983" lon="15.61793167">
        <time>2026-03-04T12:38:02Z</time>
        <course>0.00</course>
        <speed>0.770</speed>
      </trkpt>
      <trkpt lat="48.20792833" lon="15.61801167">
        <time>2026-03-04T12:38:03Z</time>
        <course>0.00</course>
        <speed>0.856</speed>
      </trkpt>
      <trkpt lat="48.20792833" lon="15.61801167">
        <time>2026-03-04T12:38:03Z</time>
        <course>0.00</course>
        <speed>0.856</speed>
      </trkpt>
      <trkpt lat="48.20795967" lon="15.61811800">
        <time>2026-03-04T12:38:04Z</time>
        <course>0.00</course>
        <speed>1.289</speed>
      </trkpt>
      <trkpt lat="48.20795967" lon="15.61811800">
        <time>2026-03-04T12:38:04Z</time>
        <course>0.00</course>
        <speed>1.289</speed>
      </trkpt>
      <trkpt lat="48.20796800" lon="15.61813583">
        <time>2026-03-04T12:38:05Z</time>
        <course>0.00</course>
        <speed>1.446</speed>
      </trkpt>
      <trkpt lat="48.20796800" lon="15.61813583">
        <time>2026-03-04T12:38:05Z</time>
        <course>0.00</course>
        <speed>1.446</speed>
      </trkpt>
      <trkpt lat="48.20796900" lon="15.61815367">
        <time>2026-03-04T12:38:06Z</time>
        <course>0.00</course>
        <speed>1.136</speed>
      </trkpt>
      <trkpt lat="48.20796900" lon="15.61815367">
        <time>2026-03-04T12:38:06Z</time>
        <course>0.00</course>
        <speed>1.136</speed>
      </trkpt>
      <trkpt lat="48.20796683" lon="15.61817050">
        <time>2026-03-04T12:38:07Z</time>
        <course>0.00</course>
        <speed>0.852</speed>
      </trkpt>
      <trkpt lat="48.20796683" lon="15.61817050">
        <time>2026-03-04T12:38:07Z</time>
        <course>0.00</course>
        <speed>0.852</speed>
      </trkpt>
      <trkpt lat="48.20796350" lon="15.61818767">
        <time>2026-03-04T12:38:08Z</time>
        <course>0.00</course>
        <speed>0.741</speed>
      </trkpt>
      <trkpt lat="48.20796350" lon="15.61818767">
        <time>2026-03-04T12:38:08Z</time>
        <course>0.00</course>
        <speed>0.741</speed>
      </trkpt>
      <trkpt lat="48.20793850" lon="15.61823217">
        <time>2026-03-04T12:38:09Z</time>
        <course>0.00</course>
        <speed>0.871</speed>
      </trkpt>
      <trkpt lat="48.20793850" lon="15.61823217">
        <time>2026-03-04T12:38:09Z</time>
        <course>0.00</course>
        <speed>0.871</speed>
      </trkpt>
      <trkpt lat="48.20795650" lon="15.61823817">
        <time>2026-03-04T12:38:10Z</time>
        <course>0.00</course>
        <speed>0.751</speed>
      </trkpt>
      <trkpt lat="48.20795650" lon="15.61823817">
        <time>2026-03-04T12:38:10Z</time>
        <course>0.00</course>
        <speed>0.751</speed>
      </trkpt>
      <trkpt lat="48.20795833" lon="15.61824933">
        <time>2026-03-04T12:38:11Z</time>
        <course>0.00</course>
        <speed>0.715</speed>
      </trkpt>
      <trkpt lat="48.20795833" lon="15.61824933">
        <time>2026-03-04T12:38:11Z</time>
        <course>0.00</course>
        <speed>0.715</speed>
      </trkpt>
      <trkpt lat="48.20796350" lon="15.61826450">
        <time>2026-03-04T12:38:12Z</time>
        <course>0.00</course>
        <speed>0.718</speed>
      </trkpt>
      <trkpt lat="48.20796350" lon="15.61826450">
        <time>2026-03-04T12:38:12Z</time>
        <course>0.00</course>
        <speed>0.718</speed>
      </trkpt>
      <trkpt lat="48.20796850" lon="15.61822217">
        <time>2026-03-04T12:38:13Z</time>
        <course>0.00</course>
        <speed>0.582</speed>
      </trkpt>
      <trkpt lat="48.20796850" lon="15.61822217">
        <time>2026-03-04T12:38:13Z</time>
        <course>0.00</course>
        <speed>0.582</speed>
      </trkpt>
      <trkpt lat="48.20798117" lon="15.61821550">
        <time>2026-03-04T12:38:14Z</time>
        <course>0.00</course>
        <speed>0.351</speed>
      </trkpt>
      <trkpt lat="48.20798117" lon="15.61821550">
        <time>2026-03-04T12:38:14Z</time>
        <course>0.00</course>
        <speed>0.351</speed>
      </trkpt>
      <trkpt lat="48.20799350" lon="15.61821767">
        <time>2026-03-04T12:38:15Z</time>
        <course>0.00</course>
        <speed>0.430</speed>
      </trkpt>
      <trkpt lat="48.20799350" lon="15.61821767">
        <time>2026-03-04T12:38:15Z</time>
        <course>0.00</course>
        <speed>0.430</speed>
      </trkpt>
      <trkpt lat="48.20798933" lon="15.61824983">
        <time>2026-03-04T12:38:17Z</time>
        <course>0.00</course>
        <speed>0.582</speed>
      </trkpt>
      <trkpt lat="48.20798933" lon="15.61824983">
        <time>2026-03-04T12:38:17Z</time>
        <course>0.00</course>
        <speed>0.582</speed>
      </trkpt>
      <trkpt lat="48.20792350" lon="15.61835917">
        <time>2026-03-04T12:38:18Z</time>
        <course>0.00</course>
        <speed>1.583</speed>
      </trkpt>
      <trkpt lat="48.20792350" lon="15.61835917">
        <time>2026-03-04T12:38:18Z</time>
        <course>0.00</course>
        <speed>1.583</speed>
      </trkpt>
      <trkpt lat="48.20787533" lon="15.61840617">
        <time>2026-03-04T12:38:19Z</time>
        <course>0.00</course>
        <speed>2.095</speed>
      </trkpt>
      <trkpt lat="48.20787533" lon="15.61840617">
        <time>2026-03-04T12:38:19Z</time>
        <course>0.00</course>
        <speed>2.095</speed>
      </trkpt>
      <trkpt lat="48.20784817" lon="15.61847000">
        <time>2026-03-04T12:38:20Z</time>
        <course>159.08</course>
        <speed>2.373</speed>
      </trkpt>
      <trkpt lat="48.20784817" lon="15.61847000">
        <time>2026-03-04T12:38:20Z</time>
        <course>159.08</course>
        <speed>2.373</speed>
      </trkpt>
      <trkpt lat="48.20784167" lon="15.61848350">
        <time>2026-03-04T12:38:21Z</time>
        <course>0.00</course>
        <speed>2.083</speed>
      </trkpt>
      <trkpt lat="48.20784167" lon="15.61848350">
        <time>2026-03-04T12:38:21Z</time>
        <course>0.00</course>
        <speed>2.083</speed>
      </trkpt>
      <trkpt lat="48.20785483" lon="15.61857117">
        <time>2026-03-04T12:38:22Z</time>
        <course>0.00</course>
        <speed>2.034</speed>
      </trkpt>
      <trkpt lat="48.20785483" lon="15.61857117">
        <time>2026-03-04T12:38:22Z</time>
        <course>0.00</course>
        <speed>2.034</speed>
      </trkpt>
      <trkpt lat="48.20785350" lon="15.61859383">
        <time>2026-03-04T12:38:23Z</time>
        <course>0.00</course>
        <speed>1.815</speed>
      </trkpt>
      <trkpt lat="48.20785350" lon="15.61859383">
        <time>2026-03-04T12:38:23Z</time>
        <course>0.00</course>
        <speed>1.815</speed>
      </trkpt>
      <trkpt lat="48.20785067" lon="15.61861367">
        <time>2026-03-04T12:38:24Z</time>
        <course>0.00</course>
        <speed>1.707</speed>
      </trkpt>
      <trkpt lat="48.20785067" lon="15.61861367">
        <time>2026-03-04T12:38:24Z</time>
        <course>0.00</course>
        <speed>1.707</speed>
      </trkpt>
      <trkpt lat="48.20786367" lon="15.61870383">
        <time>2026-03-04T12:38:25Z</time>
        <course>0.00</course>
        <speed>1.867</speed>
      </trkpt>
      <trkpt lat="48.20786367" lon="15.61870383">
        <time>2026-03-04T12:38:25Z</time>
        <course>0.00</course>
        <speed>1.867</speed>
      </trkpt>
      <trkpt lat="48.20785833" lon="15.61872883">
        <time>2026-03-04T12:38:26Z</time>
        <course>0.00</course>
        <speed>1.809</speed>
      </trkpt>
      <trkpt lat="48.20785833" lon="15.61872883">
        <time>2026-03-04T12:38:26Z</time>
        <course>0.00</course>
        <speed>1.809</speed>
      </trkpt>
      <trkpt lat="48.20761900" lon="15.61784150">
        <time>2026-03-04T12:40:24Z</time>
        <course>0.00</course>
        <speed>0.892</speed>
      </trkpt>
      <trkpt lat="48.20762050" lon="15.61785350">
        <time>2026-03-04T12:40:25Z</time>
        <course>0.00</course>
        <speed>0.640</speed>
      </trkpt>
      <trkpt lat="48.20762050" lon="15.61785350">
        <time>2026-03-04T12:40:25Z</time>
        <course>0.00</course>
        <speed>0.640</speed>
      </trkpt>
      <trkpt lat="48.20762317" lon="15.61780900">
        <time>2026-03-04T12:40:26Z</time>
        <course>0.00</course>
        <speed>0.202</speed>
      </trkpt>
      <trkpt lat="48.20762317" lon="15.61780900">
        <time>2026-03-04T12:40:26Z</time>
        <course>0.00</course>
        <speed>0.202</speed>
      </trkpt>
      <trkpt lat="48.20758783" lon="15.61777250">
        <time>2026-03-04T12:40:27Z</time>
        <course>0.00</course>
        <speed>0.990</speed>
      </trkpt>
      <trkpt lat="48.20758783" lon="15.61777250">
        <time>2026-03-04T12:40:27Z</time>
        <course>0.00</course>
        <speed>0.990</speed>
      </trkpt>
      <trkpt lat="48.20754817" lon="15.61770217">
        <time>2026-03-04T12:40:28Z</time>
        <course>11.75</course>
        <speed>1.628</speed>
      </trkpt>
      <trkpt lat="48.20754817" lon="15.61770217">
        <time>2026-03-04T12:40:28Z</time>
        <course>11.75</course>
        <speed>1.628</speed>
      </trkpt>
      <trkpt lat="48.20754383" lon="15.61758683">
        <time>2026-03-04T12:40:29Z</time>
        <course>324.27</course>
        <speed>2.954</speed>
      </trkpt>
      <trkpt lat="48.20754383" lon="15.61758683">
        <time>2026-03-04T12:40:29Z</time>
        <course>324.27</course>
        <speed>2.954</speed>
      </trkpt>
      <trkpt lat="48.20753067" lon="15.61751533">
        <time>2026-03-04T12:40:30Z</time>
        <course>308.16</course>
        <speed>3.643</speed>
      </trkpt>
      <trkpt lat="48.20753067" lon="15.61751533">
        <time>2026-03-04T12:40:30Z</time>
        <course>308.16</course>
        <speed>3.643</speed>
      </trkpt>
      <trkpt lat="48.20754800" lon="15.61747100">
        <time>2026-03-04T12:40:31Z</time>
        <course>306.32</course>
        <speed>3.699</speed>
      </trkpt>
      <trkpt lat="48.20754800" lon="15.61747100">
        <time>2026-03-04T12:40:31Z</time>
        <course>306.32</course>
        <speed>3.699</speed>
      </trkpt>
      <trkpt lat="48.20754617" lon="15.61737550">
        <time>2026-03-04T12:40:32Z</time>
        <course>304.83</course>
        <speed>3.622</speed>
      </trkpt>
      <trkpt lat="48.20754617" lon="15.61737550">
        <time>2026-03-04T12:40:32Z</time>
        <course>304.83</course>
        <speed>3.622</speed>
      </trkpt>
      <trkpt lat="48.20754233" lon="15.61733133">
        <time>2026-03-04T12:40:33Z</time>
        <course>302.09</course>
        <speed>3.337</speed>
      </trkpt>
      <trkpt lat="48.20754233" lon="15.61733133">
        <time>2026-03-04T12:40:33Z</time>
        <course>302.09</course>
        <speed>3.337</speed>
      </trkpt>
      <trkpt lat="48.20752983" lon="15.61729450">
        <time>2026-03-04T12:40:34Z</time>
        <course>297.36</course>
        <speed>3.044</speed>
      </trkpt>
      <trkpt lat="48.20752983" lon="15.61729450">
        <time>2026-03-04T12:40:34Z</time>
        <course>297.36</course>
        <speed>3.044</speed>
      </trkpt>
      <trkpt lat="48.20753367" lon="15.61723017">
        <time>2026-03-04T12:40:35Z</time>
        <course>290.05</course>
        <speed>3.520</speed>
      </trkpt>
      <trkpt lat="48.20753367" lon="15.61723017">
        <time>2026-03-04T12:40:35Z</time>
        <course>290.05</course>
        <speed>3.520</speed>
      </trkpt>
      <trkpt lat="48.20759633" lon="15.61707017">
        <time>2026-03-04T12:40:36Z</time>
        <course>289.84</course>
        <speed>5.290</speed>
      </trkpt>
      <trkpt lat="48.20759633" lon="15.61707017">
        <time>2026-03-04T12:40:36Z</time>
        <course>289.84</course>
        <speed>5.290</speed>
      </trkpt>
      <trkpt lat="48.20760800" lon="15.61701550">
        <time>2026-03-04T12:40:37Z</time>
        <course>289.89</course>
        <speed>5.113</speed>
      </trkpt>
      <trkpt lat="48.20760800" lon="15.61701550">
        <time>2026-03-04T12:40:37Z</time>
        <course>289.89</course>
        <speed>5.113</speed>
      </trkpt>
      <trkpt lat="48.20765517" lon="15.61686033">
        <time>2026-03-04T12:40:39Z</time>
        <course>296.94</course>
        <speed>5.020</speed>
      </trkpt>
      <trkpt lat="48.20765517" lon="15.61686033">
        <time>2026-03-04T12:40:39Z</time>
        <course>296.94</course>
        <speed>5.020</speed>
      </trkpt>
      <trkpt lat="48.20767100" lon="15.61681750">
        <time>2026-03-04T12:40:40Z</time>
        <course>298.77</course>
        <speed>4.838</speed>
      </trkpt>
      <trkpt lat="48.20767100" lon="15.61681750">
        <time>2026-03-04T12:40:40Z</time>
        <course>298.77</course>
        <speed>4.838</speed>
      </trkpt>
      <trkpt lat="48.20767967" lon="15.61671317">
        <time>2026-03-04T12:40:41Z</time>
        <course>297.50</course>
        <speed>4.973</speed>
      </trkpt>
      <trkpt lat="48.20767967" lon="15.61671317">
        <time>2026-03-04T12:40:41Z</time>
        <course>297.50</course>
        <speed>4.973</speed>
      </trkpt>
      <trkpt lat="48.20768783" lon="15.61667050">
        <time>2026-03-04T12:40:42Z</time>
        <course>296.88</course>
        <speed>4.801</speed>
      </trkpt>
      <trkpt lat="48.20768783" lon="15.61667050">
        <time>2026-03-04T12:40:42Z</time>
        <course>296.88</course>
        <speed>4.801</speed>
      </trkpt>
      <trkpt lat="48.20769783" lon="15.61662667">
        <time>2026-03-04T12:40:43Z</time>
        <course>295.89</course>
        <speed>4.760</speed>
      </trkpt>
      <trkpt lat="48.20769783" lon="15.61662667">
        <time>2026-03-04T12:40:43Z</time>
        <course>295.89</course>
        <speed>4.760</speed>
      </trkpt>
      <trkpt lat="48.20766650" lon="15.61667917">
        <time>2026-03-04T12:40:44Z</time>
        <course>292.15</course>
        <speed>4.231</speed>
      </trkpt>
      <trkpt lat="48.20766650" lon="15.61667917">
        <time>2026-03-04T12:40:44Z</time>
        <course>292.15</course>
        <speed>4.231</speed>
      </trkpt>
      <trkpt lat="48.20771400" lon="15.61667383">
        <time>2026-03-04T12:40:45Z</time>
        <course>289.21</course>
        <speed>4.331</speed>
      </trkpt>
      <trkpt lat="48.20771400" lon="15.61667383">
        <time>2026-03-04T12:40:45Z</time>
        <course>289.21</course>
        <speed>4.331</speed>
      </trkpt>
      <trkpt lat="48.20772183" lon="15.61666000">
        <time>2026-03-04T12:40:46Z</time>
        <course>290.20</course>
        <speed>3.976</speed>
      </trkpt>
      <trkpt lat="48.20772183" lon="15.61666000">
        <time>2026-03-04T12:40:46Z</time>
        <course>290.20</course>
        <speed>3.976</speed>
      </trkpt>
      <trkpt lat="48.20773733" lon="15.61666900">
        <time>2026-03-04T12:40:47Z</time>
        <course>289.61</course>
        <speed>3.801</speed>
      </trkpt>
      <trkpt lat="48.20773733" lon="15.61666900">
        <time>2026-03-04T12:40:47Z</time>
        <course>289.61</course>
        <speed>3.801</speed>
      </trkpt>
      <trkpt lat="48.20775350" lon="15.61663700">
        <time>2026-03-04T12:40:48Z</time>
        <course>288.27</course>
        <speed>3.881</speed>
      </trkpt>
      <trkpt lat="48.20775350" lon="15.61663700">
        <time>2026-03-04T12:40:48Z</time>
        <course>288.27</course>
        <speed>3.881</speed>
      </trkpt>
      <trkpt lat="48.20776600" lon="15.61662450">
        <time>2026-03-04T12:40:49Z</time>
        <course>285.19</course>
        <speed>3.833</speed>
      </trkpt>
      <trkpt lat="48.20776600" lon="15.61662450">
        <time>2026-03-04T12:40:49Z</time>
        <course>285.19</course>
        <speed>3.833</speed>
      </trkpt>
      <trkpt lat="48.20778567" lon="15.61658183">
        <time>2026-03-04T12:40:50Z</time>
        <course>283.03</course>
        <speed>3.926</speed>
      </trkpt>
      <trkpt lat="48.20778567" lon="15.61658183">
        <time>2026-03-04T12:40:50Z</time>
        <course>283.03</course>
        <speed>3.926</speed>
      </trkpt>
      <trkpt lat="48.20772850" lon="15.61662867">
        <time>2026-03-04T12:40:51Z</time>
        <course>279.21</course>
        <speed>3.539</speed>
      </trkpt>
      <trkpt lat="48.20772850" lon="15.61662867">
        <time>2026-03-04T12:40:51Z</time>
        <course>279.21</course>
        <speed>3.539</speed>
      </trkpt>
      <trkpt lat="48.20767733" lon="15.61667617">
        <time>2026-03-04T12:40:52Z</time>
        <course>276.22</course>
        <speed>3.039</speed>
      </trkpt>
      <trkpt lat="48.20767733" lon="15.61667617">
        <time>2026-03-04T12:40:52Z</time>
        <course>276.22</course>
        <speed>3.039</speed>
      </trkpt>
      <trkpt lat="48.20763000" lon="15.61681383">
        <time>2026-03-04T12:40:53Z</time>
        <course>0.00</course>
        <speed>2.361</speed>
      </trkpt>
      <trkpt lat="48.20763000" lon="15.61681383">
        <time>2026-03-04T12:40:53Z</time>
        <course>0.00</course>
        <speed>2.361</speed>
      </trkpt>
      <trkpt lat="48.20759417" lon="15.61684983">
        <time>2026-03-04T12:40:54Z</time>
        <course>0.00</course>
        <speed>2.059</speed>
      </trkpt>
      <trkpt lat="48.20759417" lon="15.61684983">
        <time>2026-03-04T12:40:54Z</time>
        <course>0.00</course>
        <speed>2.059</speed>
      </trkpt>
      <trkpt lat="48.20755833" lon="15.61687883">
        <time>2026-03-04T12:40:55Z</time>
        <course>0.00</course>
        <speed>1.847</speed>
      </trkpt>
      <trkpt lat="48.20755833" lon="15.61687883">
        <time>2026-03-04T12:40:55Z</time>
        <course>0.00</course>
        <speed>1.847</speed>
      </trkpt>
      <trkpt lat="48.20754750" lon="15.61695683">
        <time>2026-03-04T12:40:56Z</time>
        <course>0.00</course>
        <speed>1.520</speed>
      </trkpt>
      <trkpt lat="48.20754750" lon="15.61695683">
        <time>2026-03-04T12:40:56Z</time>
        <course>0.00</course>
        <speed>1.520</speed>
      </trkpt>
      <trkpt lat="48.20751083" lon="15.61696017">
        <time>2026-03-04T12:40:58Z</time>
        <course>0.00</course>
        <speed>1.657</speed>
      </trkpt>
      <trkpt lat="48.20751083" lon="15.61696017">
        <time>2026-03-04T12:40:58Z</time>
        <course>0.00</course>
        <speed>1.657</speed>
      </trkpt>
      <trkpt lat="48.20746300" lon="15.61705833">
        <time>2026-03-04T12:40:59Z</time>
        <course>0.00</course>
        <speed>1.244</speed>
      </trkpt>
      <trkpt lat="48.20746300" lon="15.61705833">
        <time>2026-03-04T12:40:59Z</time>
        <course>0.00</course>
        <speed>1.244</speed>
      </trkpt>
      <trkpt lat="48.20743033" lon="15.61707650">
        <time>2026-03-04T12:41:00Z</time>
        <course>0.00</course>
        <speed>1.081</speed>
      </trkpt>
      <trkpt lat="48.20743033" lon="15.61707650">
        <time>2026-03-04T12:41:00Z</time>
        <course>0.00</course>
        <speed>1.081</speed>
      </trkpt>
      <trkpt lat="48.20742317" lon="15.61701600">
        <time>2026-03-04T12:41:01Z</time>
        <course>0.00</course>
        <speed>1.277</speed>
      </trkpt>
      <trkpt lat="48.20742317" lon="15.61701600">
        <time>2026-03-04T12:41:01Z</time>
        <course>0.00</course>
        <speed>1.277</speed>
      </trkpt>
      <trkpt lat="48.20742100" lon="15.61704400">
        <time>2026-03-04T12:41:02Z</time>
        <course>0.00</course>
        <speed>0.774</speed>
      </trkpt>
      <trkpt lat="48.20742100" lon="15.61704400">
        <time>2026-03-04T12:41:02Z</time>
        <course>0.00</course>
        <speed>0.774</speed>
      </trkpt>
      <trkpt lat="48.20740217" lon="15.61705867">
        <time>2026-03-04T12:41:03Z</time>
        <course>0.00</course>
        <speed>1.013</speed>
      </trkpt>
      <trkpt lat="48.20740217" lon="15.61705867">
        <time>2026-03-04T12:41:03Z</time>
        <course>0.00</course>
        <speed>1.013</speed>
      </trkpt>
      <trkpt lat="48.20738650" lon="15.61708033">
        <time>2026-03-04T12:41:04Z</time>
        <course>0.00</course>
        <speed>1.089</speed>
      </trkpt>
      <trkpt lat="48.20738650" lon="15.61708033">
        <time>2026-03-04T12:41:04Z</time>
        <course>0.00</course>
        <speed>1.089</speed>
      </trkpt>
      <trkpt lat="48.20739833" lon="15.61707400">
        <time>2026-03-04T12:41:05Z</time>
        <course>0.00</course>
        <speed>1.154</speed>
      </trkpt>
      <trkpt lat="48.20739833" lon="15.61707400">
        <time>2026-03-04T12:41:05Z</time>
        <course>0.00</course>
        <speed>1.154</speed>
      </trkpt>
      <trkpt lat="48.20743283" lon="15.61709083">
        <time>2026-03-04T12:41:07Z</time>
        <course>0.00</course>
        <speed>0.977</speed>
      </trkpt>
      <trkpt lat="48.20743283" lon="15.61709083">
        <time>2026-03-04T12:41:07Z</time>
        <course>0.00</course>
        <speed>0.977</speed>
      </trkpt>
      <trkpt lat="48.20743617" lon="15.61709083">
        <time>2026-03-04T12:41:08Z</time>
        <course>0.00</course>
        <speed>0.945</speed>
      </trkpt>
      <trkpt lat="48.20743617" lon="15.61709083">
        <time>2026-03-04T12:41:08Z</time>
        <course>0.00</course>
        <speed>0.945</speed>
      </trkpt>
      <trkpt lat="48.20743033" lon="15.61707800">
        <time>2026-03-04T12:41:10Z</time>
        <course>0.00</course>
        <speed>1.755</speed>
      </trkpt>
      <trkpt lat="48.20743033" lon="15.61707800">
        <time>2026-03-04T12:41:10Z</time>
        <course>0.00</course>
        <speed>1.755</speed>
      </trkpt>
      <trkpt lat="48.20762633" lon="15.61692217">
        <time>2026-03-04T12:41:11Z</time>
        <course>0.00</course>
        <speed>1.411</speed>
      </trkpt>
      <trkpt lat="48.20762633" lon="15.61692217">
        <time>2026-03-04T12:41:11Z</time>
        <course>0.00</course>
        <speed>1.411</speed>
      </trkpt>
      <trkpt lat="48.20764983" lon="15.61690617">
        <time>2026-03-04T12:41:12Z</time>
        <course>0.00</course>
        <speed>1.289</speed>
      </trkpt>
      <trkpt lat="48.20764983" lon="15.61690617">
        <time>2026-03-04T12:41:12Z</time>
        <course>0.00</course>
        <speed>1.289</speed>
      </trkpt>
      <trkpt lat="48.20768883" lon="15.61685833">
        <time>2026-03-04T12:41:14Z</time>
        <course>0.00</course>
        <speed>1.435</speed>
      </trkpt>
      <trkpt lat="48.20768883" lon="15.61685833">
        <time>2026-03-04T12:41:14Z</time>
        <course>0.00</course>
        <speed>1.435</speed>
      </trkpt>
      <trkpt lat="48.20769967" lon="15.61684933">
        <time>2026-03-04T12:41:15Z</time>
        <course>0.00</course>
        <speed>1.421</speed>
      </trkpt>
      <trkpt lat="48.20769967" lon="15.61684933">
        <time>2026-03-04T12:41:15Z</time>
        <course>0.00</course>
        <speed>1.421</speed>
      </trkpt>
      <trkpt lat="48.20770500" lon="15.61684517">
        <time>2026-03-04T12:41:16Z</time>
        <course>0.00</course>
        <speed>1.340</speed>
      </trkpt>
      <trkpt lat="48.20770500" lon="15.61684517">
        <time>2026-03-04T12:41:16Z</time>
        <course>0.00</course>
        <speed>1.340</speed>
      </trkpt>
      <trkpt lat="48.20772683" lon="15.61682567">
        <time>2026-03-04T12:41:17Z</time>
        <course>0.00</course>
        <speed>1.390</speed>
      </trkpt>
      <trkpt lat="48.20772683" lon="15.61682567">
        <time>2026-03-04T12:41:17Z</time>
        <course>0.00</course>
        <speed>1.390</speed>
      </trkpt>
      <trkpt lat="48.20774967" lon="15.61680250">
        <time>2026-03-04T12:41:18Z</time>
        <course>0.00</course>
        <speed>1.515</speed>
      </trkpt>
      <trkpt lat="48.20774967" lon="15.61680250">
        <time>2026-03-04T12:41:18Z</time>
        <course>0.00</course>
        <speed>1.515</speed>
      </trkpt>
      <trkpt lat="48.20775850" lon="15.61679700">
        <time>2026-03-04T12:41:19Z</time>
        <course>0.00</course>
        <speed>1.485</speed>
      </trkpt>
      <trkpt lat="48.20775850" lon="15.61679700">
        <time>2026-03-04T12:41:19Z</time>
        <course>0.00</course>
        <speed>1.485</speed>
      </trkpt>
      <trkpt lat="48.20769817" lon="15.61688433">
        <time>2026-03-04T12:41:21Z</time>
        <course>0.00</course>
        <speed>0.959</speed>
      </trkpt>
      <trkpt lat="48.20769817" lon="15.61688433">
        <time>2026-03-04T12:41:21Z</time>
        <course>0.00</course>
        <speed>0.959</speed>
      </trkpt>
      <trkpt lat="48.20770583" lon="15.61687950">
        <time>2026-03-04T12:41:22Z</time>
        <course>0.00</course>
        <speed>0.949</speed>
      </trkpt>
      <trkpt lat="48.20770583" lon="15.61687950">
        <time>2026-03-04T12:41:22Z</time>
        <course>0.00</course>
        <speed>0.949</speed>
      </trkpt>
      <trkpt lat="48.20771217" lon="15.61686433">
        <time>2026-03-04T12:41:23Z</time>
        <course>0.00</course>
        <speed>0.877</speed>
      </trkpt>
      <trkpt lat="48.20771217" lon="15.61686433">
        <time>2026-03-04T12:41:23Z</time>
        <course>0.00</course>
        <speed>0.877</speed>
      </trkpt>
      <trkpt lat="48.20767200" lon="15.61692650">
        <time>2026-03-04T12:41:24Z</time>
        <course>0.00</course>
        <speed>0.656</speed>
      </trkpt>
      <trkpt lat="48.20767200" lon="15.61692650">
        <time>2026-03-04T12:41:24Z</time>
        <course>0.00</course>
        <speed>0.656</speed>
      </trkpt>
      <trkpt lat="48.20767350" lon="15.61693417">
        <time>2026-03-04T12:41:25Z</time>
        <course>0.00</course>
        <speed>0.440</speed>
      </trkpt>
      <trkpt lat="48.20767350" lon="15.61693417">
        <time>2026-03-04T12:41:25Z</time>
        <course>0.00</course>
        <speed>0.440</speed>
      </trkpt>
      <trkpt lat="48.20769167" lon="15.61691333">
        <time>2026-03-04T12:41:26Z</time>
        <course>0.00</course>
        <speed>0.489</speed>
      </trkpt>
      <trkpt lat="48.20769167" lon="15.61691333">
        <time>2026-03-04T12:41:26Z</time>
        <course>0.00</course>
        <speed>0.489</speed>
      </trkpt>
      <trkpt lat="48.20766550" lon="15.61695450">
        <time>2026-03-04T12:41:27Z</time>
        <course>0.00</course>
        <speed>0.386</speed>
      </trkpt>
      <trkpt lat="48.20766550" lon="15.61695450">
        <time>2026-03-04T12:41:27Z</time>
        <course>0.00</course>
        <speed>0.386</speed>
      </trkpt>
      <trkpt lat="48.20766217" lon="15.61695733">
        <time>2026-03-04T12:41:28Z</time>
        <course>0.00</course>
        <speed>0.204</speed>
      </trkpt>
      <trkpt lat="48.20766217" lon="15.61695733">
        <time>2026-03-04T12:41:28Z</time>
        <course>0.00</course>
        <speed>0.204</speed>
      </trkpt>
      <trkpt lat="48.20766383" lon="15.61695283">
        <time>2026-03-04T12:41:29Z</time>
        <course>0.00</course>
        <speed>0.155</speed>
      </trkpt>
      <trkpt lat="48.20766383" lon="15.61695283">
        <time>2026-03-04T12:41:29Z</time>
        <course>0.00</course>
        <speed>0.155</speed>
      </trkpt>
      <trkpt lat="48.20762383" lon="15.61701567">
        <time>2026-03-04T12:41:30Z</time>
        <course>0.00</course>
        <speed>0.221</speed>
      </trkpt>
      <trkpt lat="48.20762383" lon="15.61701567">
        <time>2026-03-04T12:41:30Z</time>
        <course>0.00</course>
        <speed>0.221</speed>
      </trkpt>
      <trkpt lat="48.20761500" lon="15.61702417">
        <time>2026-03-04T12:41:31Z</time>
        <course>0.00</course>
        <speed>0.377</speed>
      </trkpt>
      <trkpt lat="48.20761500" lon="15.61702417">
        <time>2026-03-04T12:41:31Z</time>
        <course>0.00</course>
        <speed>0.377</speed>
      </trkpt>
      <trkpt lat="48.20761783" lon="15.61701733">
        <time>2026-03-04T12:41:32Z</time>
        <course>0.00</course>
        <speed>0.302</speed>
      </trkpt>
      <trkpt lat="48.20761783" lon="15.61701733">
        <time>2026-03-04T12:41:32Z</time>
        <course>0.00</course>
        <speed>0.302</speed>
      </trkpt>
      <trkpt lat="48.20756867" lon="15.61709017">
        <time>2026-03-04T12:41:33Z</time>
        <course>0.00</course>
        <speed>0.555</speed>
      </trkpt>
      <trkpt lat="48.20756867" lon="15.61709017">
        <time>2026-03-04T12:41:33Z</time>
        <course>0.00</course>
        <speed>0.555</speed>
      </trkpt>
    </trkseg>
  </trk>
</gpx>
